{"type":"FeatureCollection","features":[{"type":"Feature","geometry":{"type":"Polygon","coordinates":[[[-66.19564899990776,18.47106500035445],[-66.19604200026814,18.470372000239905],[-66.19624800013247,18.470005999709837],[-66.19693199984768,18.468956999830787],[-66.19728699967492,18.468412999585947],[-66.19823499987909,18.467883999718673],[-66.1983410001843,18.467859999932454],[-66.19839800008572,18.46784700015336],[-66.19843099969766,18.467845000383868],[-66.19846000000999,18.46784400007311],[-66.19854000037593,18.46783600014287],[-66.19857899983566,18.4678239998208],[-66.19863499991217,18.467779000309637],[-66.19866099985143,18.467729000081572],[-66.19868199976783,18.467689000399865],[-66.19873899966925,18.467535000047093],[-66.19882599970786,18.46705000027929],[-66.19890500024891,18.46680099995193],[-66.19892399961718,18.466686999578805],[-66.19893700003597,18.46662700011435],[-66.19901400002885,18.46627500033429],[-66.19907900032618,18.465877999822315],[-66.19910699991527,18.46570399990076],[-66.19925900025123,18.465016999691436],[-66.19931299977958,18.464974000099115],[-66.19957100042076,18.464769000150692],[-66.199890000263,18.464687999920685],[-66.19998200032451,18.464665000016698],[-66.20007299966278,18.46464200010967],[-66.20088500032283,18.46454299984476],[-66.20164199983297,18.464276000136568],[-66.20190999962159,18.464087999898112],[-66.20253999980842,18.463928999757766],[-66.20262799967198,18.463908000419533],[-66.20317699966799,18.46377500029059],[-66.2037270003872,18.463642000058556],[-66.20465899979952,18.46357799989097],[-66.20556299962276,18.4635729999168],[-66.20585100040117,18.46362799962453],[-66.2070849999373,18.46413700000278],[-66.20747099972667,18.464359999850206],[-66.20763399993328,18.46443000000618],[-66.20779799996482,18.464500000133626],[-66.20789599987411,18.464541000036753],[-66.20799200013359,18.464581999930125],[-66.20855000035041,18.46482100019404],[-66.20930400038581,18.46512000013749],[-66.20965699966492,18.465241999899213],[-66.21021300023192,18.46533099991511],[-66.21074200013645,18.465453999851505],[-66.21114499964425,18.465536000044136],[-66.21197400002275,18.465616000402125],[-66.21272300003527,18.46559599989009],[-66.21278800033261,18.465539999636903],[-66.21281400027188,18.465518000171468],[-66.21288899971663,18.465519999968045],[-66.21333300013063,18.465440000417395],[-66.2137399998364,18.46532299986769],[-66.21414800026542,18.465139000378446],[-66.2146820001928,18.46475900027163],[-66.215153000371,18.464395999836608],[-66.21560000025974,18.4640250002299],[-66.21644499963344,18.463404999677884],[-66.21696900041339,18.463038000135935],[-66.21756500026505,18.46260700013146],[-66.21815600009384,18.46222600003862],[-66.21886800029645,18.461794999698988],[-66.21949299956212,18.46143300015895],[-66.22030400039728,18.46096099963541],[-66.22137599955168,18.460349999725207],[-66.22237599963438,18.45978599997495],[-66.22316400000497,18.45933199970594],[-66.22388000040554,18.458881999688195],[-66.22455300025011,18.45845500008208],[-66.2264119999502,18.45712900025581],[-66.22756099999584,18.456330999649367],[-66.22818100013694,18.455890999829926],[-66.22849400013138,18.455668999585978],[-66.22915600010529,18.455193999953654],[-66.22970900029925,18.454812999596598],[-66.23023700037884,18.454432000098258],[-66.23065499995528,18.454120000315527],[-66.23099600043714,18.45373900013152],[-66.23118899988266,18.453514999724874],[-66.23137100035585,18.45327599990836],[-66.23150600007506,18.45304200004023],[-66.2315920002888,18.45279899967578],[-66.23162099970281,18.452555999819563],[-66.2316009996113,18.452285000310738],[-66.23156799999936,18.452037000269087],[-66.23146199969413,18.451794000186677],[-66.23132299977696,18.451573999717272],[-66.23093299978964,18.451171000248983],[-66.23064999993241,18.450808000051538],[-66.23058200016035,18.45060700016851],[-66.2305870001832,18.450373000071878],[-66.23061899997026,18.450320000351656],[-66.23075600023762,18.45008900025464],[-66.23090000017767,18.44991899962324],[-66.23120200030145,18.44974899967568],[-66.23142800025727,18.44967999991465],[-66.23168699982503,18.449619999618253],[-66.23199099959865,18.449589000323247],[-66.2323460003242,18.44964800021366],[-66.23277399994637,18.449836000075898],[-66.23316800013167,18.450023999732327],[-66.23346100003464,18.45019800021001],[-66.23368199996757,18.450363000206323],[-66.23374800008982,18.45043199969295],[-66.23394599955822,18.450647999981452],[-66.23457200044543,18.451395000304917],[-66.23532599958253,18.452266000351145],[-66.23561900038379,18.452672999698606],[-66.23563100007935,18.45269400041131],[-66.23580400033171,18.452845000104297],[-66.2359859999066,18.452974000295512],[-66.23613099967156,18.453047000321156],[-66.23616900020471,18.453068000135993],[-66.23639599998543,18.45319399982333],[-66.23677000007923,18.453428000336455],[-66.23702500034737,18.453694000335776],[-66.2371890003789,18.453813000224457],[-66.23737000012888,18.453932000030708],[-66.23762600022191,18.454105999956948],[-66.23778000020769,18.45422500041221],[-66.2379579995846,18.454325999738614],[-66.23839500032592,18.454643000233528],[-66.23865399989369,18.45481700029134],[-66.23909699958449,18.455077999621363],[-66.23957699998351,18.455297999861738],[-66.23975100006078,18.455366999921665],[-66.24015000026895,18.455481999675882],[-66.24044300017191,18.45557300040487],[-66.24074600012061,18.455651000382684],[-66.24095600018289,18.455682999817107],[-66.24115299982638,18.45569199984335],[-66.24130799963709,18.455706000072635],[-66.24147099984371,18.455706000072635],[-66.24171600006609,18.455682999817107],[-66.24189400034132,18.455653999823962],[-66.24197499963387,18.455642000354267],[-66.2422729995597,18.45554499992353],[-66.24268699983647,18.455472000107864],[-66.24285599989089,18.455385000006864],[-66.24307199980096,18.455306999908185],[-66.24327799966528,18.45524699987375],[-66.24359599968258,18.455168999712367],[-66.24383099985923,18.45510000042501],[-66.24405199979218,18.454985000414922],[-66.24416800014312,18.45493499986781],[-66.24431100025825,18.454852000188616],[-66.24449399965805,18.454623000147038],[-66.24473800005553,18.45436599997847],[-66.24488299982049,18.454264999823497],[-66.24504199982913,18.454177999963008],[-66.24529600027235,18.454030999599002],[-66.24545100008305,18.453957999991704],[-66.24559400019818,18.453869999583418],[-66.24567200001599,18.45381100029148],[-66.24576300025258,18.453718999939692],[-66.24583000019973,18.45356800016321],[-66.2459409996295,18.453415999859057],[-66.24614599966893,18.45316399986559],[-66.24634300021073,18.452989999836852],[-66.24652700033374,18.452783000116646],[-66.2467709998329,18.45254499968119],[-66.24684299980291,18.45245300035536],[-66.24710200026901,18.45220499970422],[-66.24720400037624,18.45209000031152],[-66.24729100041489,18.451980000301685],[-66.24740600004262,18.45184700030411],[-66.24754499995979,18.451659000086988],[-66.24765999958751,18.451535000084956],[-66.24772700043299,18.45144399977224],[-66.24776099986985,18.45141099999339],[-66.24781699994634,18.451376000246828],[-66.24794400016796,18.45129699962402],[-66.24816000007803,18.4512090004084],[-66.2485590002862,18.451075999813686],[-66.24889099964889,18.451021000344966],[-66.24907200029719,18.451002999802263],[-66.24921799988704,18.451006999733657],[-66.24935699980422,18.451025000275923],[-66.24961299989725,18.45114000038182],[-66.24980299986807,18.451144999865992],[-66.25000899973237,18.451112000029685],[-66.25060100028439,18.451144999865992],[-66.2510809997851,18.451246000151905],[-66.25133000020546,18.451319000060007],[-66.25146400009976,18.45138800001467],[-66.25165800026852,18.45149399963164],[-66.25181200025429,18.451617000110076],[-66.25224400007443,18.451961999859527],[-66.25257399978732,18.45232900007456],[-66.25287699973602,18.45292099967381],[-66.25317499966184,18.45362700039079],[-66.25325800040085,18.45376399972891],[-66.25327299957115,18.453789999715347],[-66.25329400038586,18.45382400028162],[-66.25347799961055,18.45401700008527],[-66.25357399987001,18.454085999807877],[-66.25376100036608,18.454209999671974],[-66.25397300007819,18.454310999859263],[-66.25419900003399,18.454384000168574],[-66.25441900014204,18.454411999987162],[-66.25467500023507,18.454356999882727],[-66.25493800000079,18.454292999661487],[-66.25503900028313,18.454244000155068],[-66.25525199982015,18.454142000389822],[-66.25552600035485,18.453861999853924],[-66.25565500022628,18.45377000038161],[-66.25584799967181,18.453650999610986],[-66.2560159999013,18.45358199971356],[-66.25619300035163,18.45352700019531],[-66.25633300009372,18.453499999774696],[-66.25636099968281,18.453499000232437],[-66.25654499980583,18.45349500035906],[-66.25665299976086,18.45352399986475],[-66.25687899971666,18.45362999986742],[-66.25704699994616,18.453780999589416],[-66.25718699968824,18.453967999647936],[-66.25750300005573,18.454702999626953],[-66.2575990003152,18.454914000281303],[-66.2577189999658,18.45507500017001],[-66.25779599995869,18.455111000399697],[-66.25796699966291,18.455073999784812],[-66.25803199996024,18.45446500014865],[-66.25809999973231,18.45393300042256],[-66.2581769997252,18.4534600001852],[-66.25827399980957,18.452835999928794],[-66.25841000025201,18.452410000171927],[-66.25854999999412,18.45200100024701],[-66.25867100036793,18.451611000234273],[-66.25881500030796,18.45108399967297],[-66.25890200034661,18.450562000404116],[-66.25889300012577,18.450093999769397],[-66.25890399999643,18.449961999578285],[-66.2589369996084,18.44950700018192],[-66.25893300030874,18.448974999581875],[-66.25887999970698,18.44849299977136],[-66.25880400043732,18.448221999815974],[-66.2587609998813,18.448071000318798],[-66.25861199991839,18.447803999703563],[-66.2584150002749,18.447560999596714],[-66.25823799982456,18.447354999727843],[-66.25795900016531,18.44715299963304],[-66.2577330002095,18.446991999986412],[-66.25740099994847,18.446823000131488],[-66.257204000305,18.4465930000265],[-66.25714200038071,18.446261999864674],[-66.25726299985622,18.446025000203992],[-66.25741699984202,18.445794999882647],[-66.25766700008727,18.445478999687374],[-66.25794599974651,18.44503799974032],[-66.25814900013611,18.444648000107584],[-66.25833200043422,18.444276999582762],[-66.25849100044287,18.44399700000678],[-66.25864500042864,18.44368599961413],[-66.2588239996305,18.443324000242775],[-66.25892999993569,18.44305800037396],[-66.25898299963914,18.442759000356492],[-66.25899799970776,18.442535000116507],[-66.25893099976061,18.4423559998061],[-66.25875800040654,18.44223100029759],[-66.25784000033963,18.44179100014528],[-66.25782500027101,18.44178400031578],[-66.25762600007937,18.44171000015322],[-66.2566970001418,18.441006999575926],[-66.25607399962763,18.44085000030266],[-66.25543799959298,18.440588000186427],[-66.25515999975865,18.440101999667586],[-66.25506900042038,18.439480000410523],[-66.25532299996527,18.43882500011415],[-66.25572399982326,18.438614000147997],[-66.25654499980583,18.43844299960973],[-66.25687100021906,18.438271999753503],[-66.25711899991617,18.43814199996825],[-66.25725700000844,18.43802199981698],[-66.25744799980416,18.43785699989826],[-66.25788899984512,18.437066999745266],[-66.2582119998853,18.436041000067725],[-66.25815900018185,18.434988999959625],[-66.25814499993815,18.434913999777326],[-66.2579800000817,18.434034999735363],[-66.25796900021106,18.433977000104854],[-66.25787200012668,18.433464000331522],[-66.25751800012434,18.43245900023062],[-66.25738300040513,18.43182300011531],[-66.2573950001007,18.43163000009335],[-66.25759299956911,18.431153000270974],[-66.25799900034828,18.430879000365955],[-66.25811099960296,18.430803000420692],[-66.25841199990184,18.430835000222313],[-66.25868600043654,18.430877000165967],[-66.25900299973064,18.43078500031659],[-66.25928899996089,18.430633999984643],[-66.25957500019116,18.430334999658534],[-66.25990699955388,18.43019800038713],[-66.26029599971629,18.430328000214722],[-66.26056000020526,18.430710999679462],[-66.26079100018393,18.430887000313394],[-66.2612110003085,18.430927999718513],[-66.26138200001273,18.430837000422784],[-66.26148099974694,18.430525000401985],[-66.26147999992202,18.43037800025333],[-66.2616759997406,18.430376000047538],[-66.2619019996964,18.43029799967321],[-66.26192599998586,18.430045000182243],[-66.26186800025953,18.42981600031192],[-66.261816000381,18.42952200038106],[-66.2618239998786,18.42948399968662],[-66.26214699991878,18.42917000039977],[-66.26243399997396,18.429019000353982],[-66.26262099957171,18.42903199966328],[-66.26284200040298,18.428916000415978],[-66.26296600025152,18.428851000406816],[-66.26333399959924,18.42853999987871],[-66.26401099964177,18.427966999888135],[-66.26406699971827,18.427787999746577],[-66.2641959995897,18.427682999686343],[-66.26437899988778,18.42710299982174],[-66.26431500031369,18.426539999704367],[-66.2641260001678,18.426231000364268],[-66.2636320004234,18.42582000008377],[-66.26320599955271,18.42488999994767],[-66.26284300022787,18.42452200022618],[-66.26258100028706,18.424436000358405],[-66.26243800017193,18.424437000069716],[-66.2620349997658,18.424648000390846],[-66.26155100006713,18.425274999857987],[-66.26126400001196,18.425425999782327],[-66.2608029998795,18.425518999647153],[-66.26012900021003,18.425837000152157],[-66.25975199974317,18.425662000019372],[-66.25956199977237,18.42535299995399],[-66.25954199968089,18.424804000263897],[-66.25971400010835,18.424564999717806],[-66.26024499966267,18.424248999694775],[-66.26046999979356,18.423684000178174],[-66.26039899964846,18.423509000411492],[-66.26037799973206,18.423471999809763],[-66.26036699986142,18.423428000327714],[-66.26030900013508,18.423284999802615],[-66.26017600006571,18.42312900025637],[-66.26013300040799,18.423078999814635],[-66.2602320001422,18.422765999633707],[-66.26045999974782,18.42259399980371],[-66.26049200043319,18.422581999729875],[-66.26075600002385,18.42257700026705],[-66.26093299957586,18.422601000414595],[-66.26095199984242,18.4226119999129],[-66.26109900015551,18.422907000297617],[-66.26141899982265,18.423260000032354],[-66.26185300019092,18.423404000295573],[-66.26205400003238,18.423372999680904],[-66.2622259995615,18.42328199979629],[-66.26229400023189,18.423066000055353],[-66.26262200029495,18.423017999886667],[-66.26273699992267,18.42264200009071],[-66.26274699996841,18.422362000216456],[-66.26279600037222,18.422087000215942],[-66.26304599971917,18.421742999878344],[-66.26328799956849,18.421586999785927],[-66.26380899997541,18.421344999843413],[-66.26392600015126,18.42138400036079],[-66.2640979996804,18.421293000276208],[-66.26432600018435,18.421024000362866],[-66.2643229998113,18.42057900010549],[-66.26394100021987,18.41985799965833],[-66.26372199993675,18.419442999677425],[-66.26371899956371,18.4193709996076],[-66.26371799973879,18.41934399978671],[-66.2637169999139,18.41929099987347],[-66.26371199989102,18.41916199996811],[-66.26370199984528,18.418916999941036],[-66.2638299998918,18.4185039997388],[-66.26384999998328,18.418167999594093],[-66.26385199963309,18.418142000184606],[-66.26385300035633,18.41810699962932],[-66.2636549999896,18.416758999807215],[-66.26325999997941,18.41603600002557],[-66.26261800009699,18.41518199990212],[-66.2624709997839,18.41488699990855],[-66.26213600004813,18.414578999861035],[-66.26186300023667,18.41453700019928],[-66.2616330000829,18.41465699969275],[-66.26143300006635,18.4149850000405],[-66.26099000037557,18.415330000017498],[-66.26090599981167,18.41559799969525],[-66.26106700036846,18.415997000000495],[-66.26111500004903,18.416456000194238],[-66.26093199975094,18.416887999809582],[-66.26064399987085,18.417039000277583],[-66.26005300004205,18.416939999855895],[-66.25936299958074,18.41671099958342],[-66.25928099956496,18.416635999952703],[-66.2589790003395,18.416558000165722],[-66.25853599975039,18.41648499998338],[-66.25812800021971,18.416452000311125],[-66.2577759998672,18.416365999818243],[-66.25756400015511,18.416224000000526],[-66.25733400000132,18.415986000079265],[-66.25711600044144,18.415840000050597],[-66.25706200001477,18.415783000011633],[-66.25681099994459,18.415516000385182],[-66.25610499958977,18.413950999993446],[-66.25609500044234,18.413864999955347],[-66.25602799959688,18.41328399975129],[-66.25609500044234,18.412765000097725],[-66.25593100041081,18.412068999844763],[-66.2560150000764,18.41180200042257],[-66.25635999985789,18.411620000298115],[-66.25663100001954,18.411609000097084],[-66.25679199967801,18.411617000088373],[-66.25690700020407,18.41155600035847],[-66.25807299996814,18.411501000178244],[-66.25956799962015,18.410865000133924],[-66.25985700022348,18.410540999625955],[-66.25991699959961,18.410473999907833],[-66.26001100020926,18.41037099994676],[-66.26003700014853,18.410270000363713],[-66.26020600020291,18.409599000304116],[-66.260197999807,18.40954599994659],[-66.26017500024078,18.40939099967582],[-66.25991099975184,18.408860000038224],[-66.25963600029054,18.408669000281698],[-66.25961100017618,18.408630000292003],[-66.25957900038912,18.408595000359252],[-66.25925700017385,18.408312000373886],[-66.25901600014942,18.40807700001139],[-66.25896099989784,18.408037999887537],[-66.25854800034429,18.407864000210886],[-66.25825500044131,18.40742099963773],[-66.25781400040034,18.406536000001175],[-66.25766200006439,18.40549900002566],[-66.25745700002498,18.40508600001506],[-66.25755400010935,18.404624999681506],[-66.25811200032618,18.40407100034545],[-66.25827999965736,18.40353600031191],[-66.25811700034906,18.403137000103417],[-66.25786999957853,18.402857000033165],[-66.25769499967636,18.402503000376424],[-66.2575440000636,18.401911000215385],[-66.25758699972133,18.401777000003033],[-66.25746799989562,18.401245000052363],[-66.25764699999577,18.40036799987408],[-66.25749300000999,18.39933100026069],[-66.25750600042878,18.398990000049594],[-66.25735800029078,18.398694999587285],[-66.25731300008493,18.398383999965837],[-66.25746799989562,18.39789300022071],[-66.25734900006995,18.39750799957884],[-66.2570019997403,18.39739300026079],[-66.25665399958577,18.397128999853322],[-66.25640500006374,18.39670099958589],[-66.25628700006297,18.39631700041663],[-66.2559530001521,18.396007999664505],[-66.25512899979651,18.395734000059427],[-66.25507000024527,18.395615999921038],[-66.25473700015935,18.395455999647695],[-66.25461900015857,18.395353000080323],[-66.25447000019564,18.395223000257122],[-66.25442800036285,18.395186000394386],[-66.25437499976108,18.395139999885902],[-66.25425900030847,18.39503899989377],[-66.25409799975166,18.394898000269894],[-66.25383199961287,18.394824000396937],[-66.25380099965074,18.394813999858762],[-66.25370899958924,18.3947859997126],[-66.25363999999227,18.394770999754204],[-66.25321700039295,18.39465399969298],[-66.25268000009251,18.394228999756475],[-66.25256799993953,18.394191999680288],[-66.2523760003189,18.394127000195372],[-66.25191699983628,18.394369000041905],[-66.2517910003379,18.394769999870622],[-66.25149199968885,18.395262999754166],[-66.2509750003782,18.395533999618383],[-66.24974299959361,18.395532999739192],[-66.2496239997679,18.395532999739192],[-66.24961100024744,18.395546999752135],[-66.2493199999943,18.39559200027311],[-66.24902799991625,18.39564300005375],[-66.24863600027909,18.395712000184247],[-66.24824399974361,18.395781000287098],[-66.24815900025311,18.395796000157556],[-66.24737199970741,18.395875999728727],[-66.2471580003455,18.395897999582967],[-66.24694400008524,18.39592000028682],[-66.24686600026743,18.395928000154594],[-66.24603799971388,18.395697000306473],[-66.24554099959641,18.395492000425392],[-66.24547100017453,18.395444000239177],[-66.2454050000523,18.395429000338073],[-66.2451029999285,18.395268000010308],[-66.24500599984412,18.395166000211873],[-66.24495399996559,18.39511199979273],[-66.24487199994982,18.394973999875933],[-66.24485799970613,18.39495100002113],[-66.24485900042934,18.394936000077113],[-66.24475300012413,18.394890000354263],[-66.24472700018487,18.39487500040495],[-66.24458599971956,18.394793999633066],[-66.24427899957287,18.394761000065376],[-66.24406100001299,18.394917999631115],[-66.24381400014079,18.39508299981321],[-66.2430609999303,18.395777999801393],[-66.24277700024817,18.396258000131013],[-66.24234000040516,18.396601000381903],[-66.24204699960389,18.396829000255316],[-66.24193299980108,18.396917000021066],[-66.24142900001092,18.39706299990133],[-66.24052000016479,18.397018999635172],[-66.23810800027076,18.398506000213157],[-66.23783100026131,18.39869200000474],[-66.23777699983462,18.39872800010619],[-66.23776699978889,18.398734999982988],[-66.23775799956807,18.398740999998914],[-66.23773300035202,18.398758000185005],[-66.23755400025189,18.398877999595513],[-66.2374429999238,18.39895100042486],[-66.23740299974084,18.39897899989406],[-66.2372880001131,18.399170000170148],[-66.23715099984575,18.399398999909586],[-66.23701500030162,18.399624999778297],[-66.23697599994355,18.399893000037846],[-66.23639599998543,18.40003200012909],[-66.2358169998522,18.400304999865295],[-66.2355490000636,18.40074600029538],[-66.23546100020005,18.400810999840008],[-66.23527700007703,18.400949000195045],[-66.23496999993037,18.4008690004227],[-66.23480599989884,18.401074999718446],[-66.23473399992882,18.40116700011055],[-66.23466100013388,18.401258999601062],[-66.23463799966936,18.401288000245607],[-66.23434499976639,18.40146400029037],[-66.2341339998792,18.401472999745376],[-66.23404099999277,18.40147699997659],[-66.23394899993127,18.40147600013189],[-66.23394599955822,18.401449999905928],[-66.23393399986264,18.40136600013265],[-66.23391700014422,18.40128099962019],[-66.23324799959931,18.401018999752207],[-66.23321599981226,18.40102600038828],[-66.23309899963638,18.400999000246944],[-66.23297499978783,18.40098999991477],[-66.23264300042513,18.400976000344205],[-66.2325010001349,18.400995000004674],[-66.2314240000593,18.400633000281196],[-66.23087000004044,18.400446000177787],[-66.23031299964852,18.400258999871358],[-66.22976600020066,18.400074999772773],[-66.22950699973457,18.399987999768918],[-66.229198999763,18.39988500035418],[-66.22873000013296,18.399727000346058],[-66.22763299996585,18.399356999954126],[-66.22745700023876,18.399297999857318],[-66.22728700035944,18.399241000308045],[-66.22678299967097,18.39907200041198],[-66.2261640002531,18.398863999853273],[-66.22612400007013,18.398850999969834],[-66.22610499980355,18.398880000167424],[-66.22576800041797,18.39876199962685],[-66.22570200029573,18.398739000277754],[-66.22554900013486,18.39868900042214],[-66.22539799962381,18.398638999699642],[-66.22534699957018,18.398622000354223],[-66.22260099976528,18.397717999803145],[-66.22106299955723,18.397212999988103],[-66.2210590002576,18.39718699997104],[-66.22076600035462,18.397094000140246],[-66.2202430002979,18.396918999763372],[-66.21983900006684,18.396784999929388],[-66.21933299972855,18.39661399958272],[-66.21930500013947,18.39660400000086],[-66.21913199988711,18.396547000412543],[-66.21879899980118,18.396435999948825],[-66.21878200008274,18.396430999726608],[-66.21761299994563,18.396074000020658],[-66.21726999981396,18.395969000217057],[-66.21698399958369,18.395869999612994],[-66.21646399990001,18.395690000306256],[-66.2163579995948,18.39565299969142],[-66.21609700037722,18.39556600001141],[-66.21552400009176,18.39537599988149],[-66.21527200019668,18.395292999583972],[-66.21500100003503,18.39520300007888],[-66.21366299984352,18.39475900029802],[-66.2133239999098,18.394645999766052],[-66.21293399992247,18.39451600026178],[-66.21185799967178,18.394158999997323],[-66.21126099999522,18.393961000061843],[-66.2112049999187,18.393941999625525],[-66.2108879997263,18.393833999707894],[-66.21074499961118,18.39377700005557],[-66.21052799987619,18.393679999676674],[-66.2103310002327,18.39361499999857],[-66.21027299960808,18.393597000266976],[-66.20977300001587,18.393435000040732],[-66.20913500033141,18.393227000347824],[-66.20866699962795,18.39307399966751],[-66.20839100034176,18.39299099996594],[-66.20767999996404,18.392779000156366],[-66.20748499997036,18.392714000138373],[-66.20690099981428,18.392518999937305],[-66.20682899984425,18.392494999857977],[-66.20653199974333,18.39239599981504],[-66.2063960001992,18.392350000266486],[-66.2063119996353,18.392322999617775],[-66.20618799978675,18.392275000253555],[-66.20597199987668,18.39221099994395],[-66.20490800021987,18.39185699971991],[-66.20467999971592,18.39177999969047],[-66.2045509998445,18.391737999582396],[-66.20431999986582,18.39166200025389],[-66.20410300013083,18.391591000402233],[-66.20359299959458,18.391422999724327],[-66.2031649999724,18.39128099979487],[-66.20311899994165,18.391266000383798],[-66.20279300042675,18.39115900039836],[-66.20256300027296,18.39108299996202],[-66.20212600042997,18.39093800003484],[-66.20121800040876,18.39063699997878],[-66.20106400042297,18.390586000421287],[-66.20073999965956,18.390479999922132],[-66.20070200002472,18.390467000258532],[-66.1972430001923,18.389371999696383],[-66.19723099959842,18.389368000036573],[-66.197137999712,18.389338999942808],[-66.19698000042656,18.389288999916594],[-66.19700399981771,18.389502999585837],[-66.19696700000777,18.39025000035192],[-66.19693900041868,18.390807000383752],[-66.19647900011114,18.390919000117652],[-66.19518600012547,18.391234000044573],[-66.19565899995351,18.391990999976933],[-66.19588200043457,18.39236199989049],[-66.1965109998982,18.39335999964766],[-66.19697000038082,18.394098999937572],[-66.19695399958898,18.394123999680847],[-66.1967920001056,18.394399000027356],[-66.19677399966393,18.39442800012201],[-66.19668599980038,18.39456900013053],[-66.19648400013402,18.394927000280568],[-66.19639299989743,18.395040999657883],[-66.19630199966082,18.395216000237603],[-66.19620600029967,18.39533999993193],[-66.19610500001733,18.39550000031305],[-66.196003999735,18.39561500004233],[-66.1958639999929,18.395817000144472],[-66.19551900021142,18.396312000190957],[-66.19546300013491,18.39641500003736],[-66.19538899961675,18.396555000251244],[-66.19536400040072,18.396637999940705],[-66.19534599995905,18.3967339996344],[-66.19535099998193,18.39684400003453],[-66.19536400040072,18.396958999719068],[-66.19542299995193,18.397114999968938],[-66.19552400023429,18.39727000020846],[-66.19560500042515,18.39746300041073],[-66.19569599976342,18.397595999850104],[-66.19575100001501,18.397717999803145],[-66.19578700000001,18.397798000186565],[-66.19585899997004,18.398086999589385],[-66.1959550002295,18.398334999870112],[-66.19608400010092,18.398647000293558],[-66.1961240002839,18.39874299972004],[-66.19624800013247,18.39903200009454],[-66.19647499991318,18.39960500011113],[-66.19649400017975,18.399658999974225],[-66.19651799957089,18.399671999796688],[-66.1965329996395,18.399722000219352],[-66.19657299982248,18.39978800000491],[-66.19664200031775,18.400059000422026],[-66.19663899994472,18.40009000012174],[-66.19664700034063,18.400131999898452],[-66.1966370002949,18.400310999826516],[-66.1965949995638,18.400453999835374],[-66.19654600005829,18.40059099977424],[-66.19646999989031,18.400697000019232],[-66.19641299998891,18.400797000254897],[-66.19637399963084,18.400939999860235],[-66.19636699995816,18.401056999913955],[-66.19636500030835,18.40110899962819],[-66.19638299985168,18.401301999790817],[-66.19647900011114,18.40165500036788],[-66.19648499995893,18.40167200026631],[-66.19653699983746,18.401815999840267],[-66.19658600024127,18.401953000400432],[-66.19668599980038,18.402172999578774],[-66.1968709997483,18.402448999700255],[-66.19693500022072,18.402545000417085],[-66.19709800042735,18.402761000342636],[-66.19717100022227,18.402857000033165],[-66.19738899978215,18.403156000377848],[-66.19739800000299,18.40316899993635],[-66.19740700022383,18.403185999685356],[-66.19751299963072,18.40339300030506],[-66.19757999957787,18.40358599961277],[-66.19759899984444,18.40366800034401],[-66.19761899993594,18.403756000025055],[-66.19760399986733,18.40391200008529],[-66.19756000038471,18.404072000175077],[-66.19748400021673,18.40415899982055],[-66.19736600021594,18.404233999773595],[-66.19721999972776,18.40432899966718],[-66.19718299991784,18.404353999630487],[-66.19706599974197,18.404435000168498],[-66.19692699982481,18.404549000071928],[-66.1968359995882,18.404791999591747],[-66.19677700003697,18.404934000316956],[-66.19678799990764,18.40510000010389],[-66.19682600044078,18.40526499990806],[-66.19687800031932,18.405366999692454],[-66.19692199980193,18.405452999714395],[-66.19703599960476,18.405627000122983],[-66.19710400027512,18.405755999944976],[-66.19724400001722,18.40591100007902],[-66.19736299984291,18.406127000044098],[-66.19753100007239,18.406466000129544],[-66.19761399991306,18.406700000319614],[-66.19769099990596,18.407035000027207],[-66.1977150001954,18.40729700011777],[-66.19776799989886,18.407517000139578],[-66.19775299983023,18.407686000271504],[-66.19774899963228,18.407815000255525],[-66.19772000021828,18.407892999743027],[-66.19765699957078,18.407975000127777],[-66.19748400021673,18.408043999579352],[-66.19741700026958,18.40808100008914],[-66.19723499979638,18.408112999855597],[-66.1970809998106,18.408163000384377],[-66.1969119997562,18.408240999714224],[-66.19683099956534,18.40832399973819],[-66.19675899959532,18.4083839999565],[-66.19653799966238,18.408682000276333],[-66.19649500000467,18.40880599965108],[-66.19646599969235,18.40894299976374],[-66.19650900024838,18.409214000262736],[-66.19647099971523,18.409355999897812],[-66.19644200030123,18.40952099988485],[-66.19636500030835,18.40971800003423],[-66.19636500030835,18.409869999770397],[-66.19647499991318,18.410341999979735],[-66.19657199999757,18.410593999677104],[-66.19672099996049,18.410888000420407],[-66.19677700003697,18.41107600005265],[-66.196989999574,18.411360000395273],[-66.19711900034373,18.41148900018307],[-66.19726300028378,18.411617000088373],[-66.19738799995726,18.411755000305835],[-66.19748500004164,18.411883000013322],[-66.19754199994303,18.41200199986909],[-66.19763800020252,18.412264000070884],[-66.19770599997457,18.412420000092695],[-66.19782599962517,18.41252999984823],[-66.19798399980893,18.4126030000036],[-66.19809400031208,18.412695000202035],[-66.19816200008415,18.412814000348725],[-66.19818600037361,18.412896999872274],[-66.19818100035073,18.412992999877183],[-66.19816700010702,18.413121000368626],[-66.19818600037361,18.413226999718063],[-66.1982569996204,18.413336999810134],[-66.19827699971188,18.413519999598346],[-66.19828599993271,18.413699000097193],[-66.1982630003665,18.413827999836542],[-66.19814299981758,18.41405699968398],[-66.19811400040358,18.414212999785214],[-66.19809400031208,18.414355000410055],[-66.19801300012124,18.4146260000589],[-66.19788300042488,18.41480500025969],[-66.19774899963228,18.414927999718312],[-66.19767199963937,18.415043000109733],[-66.1975650004076,18.415213000288098],[-66.19733100005585,18.415510999864708],[-66.19721999972776,18.41559799969525],[-66.19711400032088,18.415656000410138],[-66.19704700037371,18.415693999898053],[-66.19693100002277,18.415728000329928],[-66.1967150001127,18.415790999808898],[-66.19659100026415,18.41580400011791],[-66.19638299985168,18.415918999923864],[-66.19631599990454,18.41598299994563],[-66.19624999978228,18.41606099999329],[-66.19623899991164,18.416082000065636],[-66.19610599984225,18.41633200036472],[-66.19601899980361,18.416565999926956],[-66.1959269997421,18.416790999664855],[-66.19581600031233,18.417016999715287],[-66.19577399958122,18.417102000128867],[-66.1956730001972,18.417157999977285],[-66.19555799967115,18.41724499982743],[-66.19543800002054,18.41726999961947],[-66.19522600030844,18.417327000018183],[-66.19504300001036,18.41738200004107],[-66.19485200021464,18.41746000030684],[-66.19478199989443,18.417491000282435],[-66.1947729996736,18.417495000141425],[-66.19467800013737,18.41753799968493],[-66.19457799967994,18.41759800010036],[-66.19451400010584,18.417680000122868],[-66.19445800002933,18.41776699970908],[-66.19441899967129,18.417878000057737],[-66.1943430004016,18.418145000280592],[-66.19429399999781,18.418318000044188],[-66.19428599960189,18.418392000047582],[-66.1942799997541,18.418445999983906],[-66.19425200016502,18.418507999574242],[-66.19422200002779,18.418579000259868],[-66.19416500012638,18.41864799972171],[-66.19409200033145,18.418693999915753],[-66.19392900012484,18.418734999670733],[-66.19390599966029,18.418737000011937],[-66.1937230002605,18.41875399992808],[-66.19345399974867,18.41875799975769],[-66.19335099981652,18.418753000183738],[-66.1929919997913,18.418740000097547],[-66.19277500005634,18.41870300017465],[-66.19252599963599,18.418670999820296],[-66.19238099987102,18.41866200041205],[-66.19223299973302,18.418640000057266],[-66.1920410001124,18.41861200037651],[-66.19188200010375,18.418552000314694],[-66.19177199960059,18.41845999983837],[-66.19171899989713,18.418341000186842],[-66.19166100017081,18.41828100003053],[-66.19155099966764,18.418248999597683],[-66.19147200002493,18.418248999597683],[-66.19145799978122,18.418248999597683],[-66.19134399997841,18.41829000031099],[-66.19128299987904,18.418328999816335],[-66.19118499996974,18.41839100030113],[-66.191026999786,18.41845999983837],[-66.19088799986882,18.418510999663805],[-66.19081699972371,18.41851799958854],[-66.19069100022534,18.418536000124245],[-66.19051100030029,18.418567999651398],[-66.19027100010076,18.418593000103503],[-66.19004599996987,18.41865699998301],[-66.18971799990682,18.418786000266998],[-66.1892600001474,18.41891499960197],[-66.18852299983043,18.41919899979231],[-66.18824699964593,18.419326000187887],[-66.1881189995994,18.41937600001589],[-66.18800200032184,18.4194310002361],[-66.1878519996357,18.41948199977371],[-66.18768299958128,18.419519000381378],[-66.18760700031164,18.419546000174787],[-66.18760399993859,18.41955900020008],[-66.18757100032663,18.419687999807728],[-66.187556000258,18.419739999860095],[-66.18753899964125,18.419850000050154],[-66.18753600016653,18.419869000184335],[-66.1875279997706,18.419925999722008],[-66.1874650000214,18.420064999831176],[-66.18739499970121,18.42019600023592],[-66.18732799975406,18.420315000308957],[-66.18721599960107,18.420426999600632],[-66.18709699977538,18.4205729999984],[-66.18683300018473,18.42073599999254],[-66.18668500004672,18.420812000125242],[-66.1864709997865,18.420936999866786],[-66.18629400023448,18.421050999920087],[-66.18604900001209,18.421184999616976],[-66.1858380001249,18.421335999722746],[-66.18563100043568,18.421441000248755],[-66.18542399984811,18.421519000378854],[-66.18531900026613,18.421542000093574],[-66.18516500028035,18.421570000149764],[-66.18501700014234,18.42158999982184],[-66.18492500008084,18.421601999964885],[-66.18489400011869,18.42160299969267],[-66.18477100009504,18.421605999728268],[-66.18461200008637,18.421616000414783],[-66.18445399990264,18.421592999857666],[-66.1841690003956,18.421564999805238],[-66.18405499969447,18.421605999728268],[-66.1838959996858,18.421639000116553],[-66.18375699976865,18.421648000221367],[-66.18358299969137,18.421642999879122],[-66.1833679996062,18.421616000414783],[-66.18312699958179,18.421601999964885],[-66.18287300003688,18.421633999774038],[-66.18272800027192,18.42167499968064],[-66.18260400042337,18.421720999917582],[-66.18248399987445,18.421752999704612],[-66.18234900015524,18.421780999726465],[-66.18223299980428,18.421776000240335],[-66.18211399997861,18.42173900011813],[-66.18202699993995,18.421692999885998],[-66.18174300025784,18.421527999637643],[-66.18156599980752,18.421469000321355],[-66.18140599997393,18.421460000207215],[-66.18113800018534,18.4214549998595],[-66.18084000025951,18.421423000017036],[-66.1806140003037,18.42143699962923],[-66.1803740001042,18.42140000028638],[-66.18024000020989,18.42135900031427],[-66.18014800014838,18.42130399985815],[-66.18006600013261,18.421202999873604],[-66.18000400020834,18.421088000190274],[-66.17994200028406,18.420923000213897],[-66.17989399970517,18.420811000392863],[-66.17985100004745,18.420711999584814],[-66.17972999967363,18.42048699986081],[-66.1796200000688,18.420303999811473],[-66.17957400003802,18.42025199992961],[-66.17956200034246,18.42023800022097],[-66.17951399976357,18.420183999994798],[-66.17942800044815,18.420093000127743],[-66.17932700016581,18.420019000003663],[-66.17915899993632,18.419918000116986],[-66.17899999992767,18.41986300005247],[-66.17883699972106,18.419749000064233],[-66.17873100031414,18.419638999809596],[-66.17861599978811,18.419487000178766],[-66.17845099993168,18.419303999918014],[-66.17831799986227,18.419194000231144],[-66.1781920003639,18.419125000136],[-66.17808199986074,18.4191340003723],[-66.17791399963124,18.41916599978826],[-66.17774600030006,18.419221000075567],[-66.17758300009343,18.41929000013224],[-66.17756100035214,18.419300999842253],[-66.17741400003904,18.41937699975663],[-66.1772900001905,18.419473000407876],[-66.1771210001361,18.41961599984043],[-66.17696799997522,18.41973900012148],[-66.17688000011167,18.419758000267926],[-66.1767710003317,18.419766999618837],[-66.1765589997213,18.419771000277187],[-66.17627099984121,18.41973900012148],[-66.17602499979391,18.4197260001098],[-66.17578600031763,18.419749000064233],[-66.17558399975294,18.419748000325672],[-66.17546400010235,18.419781000218084],[-66.17525200039023,18.419804000165186],[-66.17508900018362,18.419840000113243],[-66.17491000008347,18.41989100038195],[-66.17479600028066,18.419969000362535],[-66.1746790001048,18.420068999630296],[-66.17453599998967,18.42017499981342],[-66.17439200004961,18.420235000161522],[-66.17424800010957,18.420261999842566],[-66.1741369997815,18.420276000401522],[-66.17403700022238,18.420331000333995],[-66.17395500020662,18.42039000004055],[-66.17390099977995,18.420518999877373],[-66.17388800025947,18.420633000207687],[-66.17389699958198,18.420771000012984],[-66.17385800012224,18.420866999886357],[-66.17381499956622,18.420940999645666],[-66.1737429995962,18.420981999717416],[-66.17364300003707,18.42101900000245],[-66.17357000024214,18.42101900000245],[-66.17349400007416,18.421013999641907],[-66.17339100014199,18.420990999856606],[-66.17337900044643,18.420987999810247],[-66.17333199969246,18.420977999939517],[-66.17330599975318,18.42097199984634],[-66.17326599957022,18.42096299970616],[-66.17324300000399,18.420959999659352],[-66.1732010001712,18.420959999659352],[-66.17307999979738,18.42096400028996],[-66.17302500044411,18.420970000383427],[-66.17300799982736,18.42097199984634],[-66.17298500026114,18.420974000161504],[-66.17294799955292,18.420977999939517],[-66.17293500003242,18.420980000254602],[-66.17292099978872,18.420980999986014],[-66.17285899986445,18.420987000078885],[-66.17279699994018,18.420999999995278],[-66.17268599961207,18.42102299977942],[-66.17265300000011,18.421050000189094],[-66.17259299972567,18.421100000368344],[-66.17259000025092,18.42113999981945],[-66.17255000006794,18.42168699981776],[-66.17255500009082,18.421730000018112],[-66.1725879997028,18.421938999946892],[-66.1726029997714,18.42224599987937],[-66.17256900033453,18.422489999704155],[-66.17232400011214,18.422883000192765],[-66.17203600023205,18.42312199966701],[-66.17200400044501,18.42315000031827],[-66.1719180002313,18.42319799959782],[-66.17149899993161,18.423519999851734],[-66.17119500015801,18.42373299987638],[-66.17107600033233,18.423768000139283],[-66.17082500026216,18.423911000262795],[-66.17051200026772,18.42419499987551],[-66.17024299975589,18.424470999626],[-66.16998800038607,18.424865000410712],[-66.16976699955482,18.425300000187605],[-66.16962799963764,18.42570899974622],[-66.16955599966762,18.425992999798996],[-66.1694839996976,18.42639199985805],[-66.16944900043582,18.42658100014603],[-66.1694069997047,18.42685099958836],[-66.1693289998869,18.427147000068118],[-66.16930100029782,18.427255000392705],[-66.16924299967317,18.427507000034108],[-66.16923199980253,18.42771299983185],[-66.16922900032779,18.42779500014602],[-66.16922400030492,18.428029000307934],[-66.16926699996262,18.428213000349995],[-66.16933499973469,18.428298000344643],[-66.16955999986557,18.42855699967822],[-66.16985899961632,18.42879099965541],[-66.17019000005243,18.42892800004787],[-66.1704059999625,18.428996999619443],[-66.17056900016911,18.42921299958144],[-66.17061299965172,18.42933500013449],[-66.17063199991831,18.42944200025491],[-66.17061199982682,18.429731999895964],[-66.1705730003671,18.429915999820167],[-66.17036599977952,18.43002400011009],[-66.17012599958002,18.430000000146226],[-66.16999699970859,18.429992000157505],[-66.16979599986715,18.430014999591368],[-66.16970399980563,18.430066999930432],[-66.16961900031512,18.430114000157836],[-66.1696030004216,18.430119999932078],[-66.16954099959901,18.43015799963374],[-66.16946899962899,18.4303739998417],[-66.16941599992553,18.43063199978184],[-66.1694069997047,18.430689999688642],[-66.16938300031359,18.430885999787325],[-66.16937499991766,18.430945000134177],[-66.16951600038297,18.43099799986513],[-66.16947100017713,18.431124000398132],[-66.16965100010218,18.431268000041932],[-66.1698700003853,18.431472000254118],[-66.16988600027882,18.43154900042583],[-66.16990800002014,18.431656000020602],[-66.16990299999725,18.43168600032518],[-66.16986700001225,18.431903999653724],[-66.16986000033954,18.43194400000089],[-66.1698290003774,18.431961000316086],[-66.16967600021654,18.43204499964297],[-66.16966299979774,18.432051000202073],[-66.16923500017556,18.43210200025858],[-66.16870500044615,18.43214699974445],[-66.16856900000371,18.43218999988608],[-66.16828899962123,18.43221000002754],[-66.16796700030427,18.432301999966622],[-66.16777899998328,18.432553999881044],[-66.16775499969384,18.432751000074308],[-66.16777499978532,18.433003000182783],[-66.16783199968674,18.433196000367776],[-66.16812299993987,18.433385999653805],[-66.1683149995605,18.433432000167013],[-66.16853600039174,18.433464999990342],[-66.16880500000525,18.433459999991708],[-66.16916999987824,18.43345499999291],[-66.16937300026785,18.433477999815743],[-66.1696729998435,18.433505999632896],[-66.1697080000036,18.433512000140993],[-66.16975499985925,18.43352099962443],[-66.16991600041605,18.433582999745827],[-66.16995200040107,18.433617999708297],[-66.17006600020387,18.43372400006243],[-66.17009499961787,18.433751000182394],[-66.17010899986158,18.433816000043457],[-66.1701459996715,18.433994000218963],[-66.17015800026537,18.43404900002527],[-66.17015499989233,18.434177999842795],[-66.17015300024252,18.43427899987678],[-66.17009999964075,18.43450400030449],[-66.17001400032534,18.434935000104392],[-66.17001099995228,18.43496100038403],[-66.1699549998758,18.435095000320555],[-66.16990399982217,18.435215999607454],[-66.16983299967706,18.43538400015244],[-66.16974200033879,18.435413999806375],[-66.16965799977488,18.435498000002603],[-66.16945899958324,18.43554100015819],[-66.16931200016847,18.43557200028351],[-66.16897999990745,18.435512000173365],[-66.1688219997237,18.43538799959526],[-66.16870000042327,18.435221000407257],[-66.1685460004375,18.435037000195507],[-66.16853899986648,18.4350300000909],[-66.16833200017724,18.434925999842804],[-66.16804799959681,18.434888000342827],[-66.16777399996043,18.43491199962432],[-66.16762099979955,18.434940999710385],[-66.16751500039264,18.434962000034147],[-66.16720700042107,18.435098999770116],[-66.16684699967264,18.435355999788957],[-66.16647699977679,18.435657999694698],[-66.16606400022324,18.4360760003819],[-66.16597100033681,18.436167999956297],[-66.16581300015307,18.436327000234716],[-66.16569299960415,18.436446999865076],[-66.165449000105,18.436804999826837],[-66.16528000005059,18.43707500025692],[-66.1651679998976,18.437347000387536],[-66.16508000003407,18.437556999717675],[-66.16501499973673,18.43766500032026],[-66.16498999962236,18.437752999656354],[-66.16496000038346,18.43785999965029],[-66.16489500008613,18.438025000418317],[-66.16464499984087,18.438790000359845],[-66.16416899963981,18.440345000098826],[-66.1638230000334,18.441587999861703],[-66.16374699986541,18.441972999872345],[-66.16375600008625,18.44229099976624],[-66.16375600008625,18.442693999616935],[-66.1637610001091,18.44330900025474],[-66.16377000032995,18.44375399962749],[-66.16372699977394,18.444138999897476],[-66.16362600038991,18.44462500007537],[-66.16353900035126,18.444941000137266],[-66.1634139997795,18.445316999734047],[-66.16314500016597,18.445982000115453],[-66.16288499987498,18.446490999977662],[-66.16252000000199,18.447229000017195],[-66.16230200044211,18.447608000152698],[-66.16208300015899,18.447989999879205],[-66.16191800030255,18.448213999823373],[-66.16177500018742,18.448408000391094],[-66.16147700026157,18.44873000028746],[-66.16110999984046,18.449076999859837],[-66.1610629999848,18.449129000395953],[-66.16078000012757,18.44937100042238],[-66.16060699987523,18.449470000063766],[-66.1604579999123,18.44955400020535],[-66.16040299966072,18.44957999997709],[-66.16007799997071,18.449728999871308],[-66.1598040003343,18.449843999992943],[-66.15968399978541,18.449892999902808],[-66.15930100036907,18.450066000098868],[-66.15914900003311,18.450134999704815],[-66.15909100030679,18.450161000240726],[-66.15909100030679,18.449826999742694],[-66.15912499974367,18.449460999711373],[-66.1591549998809,18.44938700029942],[-66.15920599993451,18.44891899987134],[-66.15927799990453,18.44860300031043],[-66.15939300043058,18.448281999748605],[-66.15942799969237,18.44823799980006],[-66.15948700014191,18.448161999862354],[-66.1594939998146,18.44814799987016],[-66.15951599955592,18.448107000312564],[-66.15953700037063,18.448065999893004],[-66.15954900006619,18.44804399989246],[-66.15957300035564,18.447997999882237],[-66.1596279997089,18.44789300023882],[-66.15976400015134,18.447616999750036],[-66.15989600039583,18.44746500014358],[-66.15992099961187,18.447435999614758],[-66.15997699968835,18.447386999856043],[-66.16006700010006,18.447273000224246],[-66.16018699975065,18.447020999738047],[-66.16026399974353,18.446796000361118],[-66.16026899976642,18.446552000097682],[-66.16025899972065,18.44630000025808],[-66.16017300040527,18.44608900009785],[-66.16006700010006,18.445924000256415],[-66.16006000042735,18.445916999743172],[-66.1599800000614,18.445856000249837],[-66.15987899977908,18.445778999671003],[-66.15983399957324,18.445745000068463],[-66.15967399973965,18.445676999991022],[-66.1596620000441,18.445676000403218],[-66.15953999984535,18.445664000236278],[-66.15948999961664,18.445658999740424],[-66.15947200007331,18.44565699971245],[-66.1593530002476,18.445645000396404],[-66.15933399998103,18.445643000368264],[-66.15928399975232,18.445647000424476],[-66.15924199991953,18.445650000040505],[-66.15917599979728,18.445656000124547],[-66.15916099972868,18.44565699971245],[-66.15910999967505,18.445660999768343],[-66.15909299995661,18.445662000208408],[-66.15903100003233,18.445666000264175],[-66.15896200043537,18.44567200034768],[-66.15892499972712,18.445674999963252],[-66.15874300015224,18.44573400034598],[-66.15849799992986,18.445893999880866],[-66.15834800014203,18.445998999894105],[-66.1582960002635,18.446035999907824],[-66.15811299996538,18.446251000175295],[-66.15787299976589,18.446637000396432],[-66.1577050004347,18.446929999590008],[-66.15752200013661,18.44706299998678],[-66.15741800037952,18.44710300021413],[-66.1572479996019,18.447168000137623],[-66.15716700030936,18.447174000168626],[-66.15715600043869,18.447135999968584],[-66.15705400033146,18.447135999968584],[-66.15679599969029,18.447133000378532],[-66.15675100038276,18.447081000090247],[-66.15658900000105,18.44704899990505],[-66.15637899993877,18.44696700025535],[-66.15609100005867,18.446790999898177],[-66.15602599976135,18.446756999643775],[-66.15596999968486,18.44672799984756],[-66.15580099963044,18.446607999727778],[-66.15564099979689,18.44640999964514],[-66.15540099959736,18.446124999654838],[-66.15539300009976,18.44611800000195],[-66.15515299990024,18.445897999931233],[-66.15501999983086,18.445809999653644],[-66.15496100027963,18.445778000083795],[-66.15490600002805,18.445759000256487],[-66.1546919997678,18.445681999634207],[-66.15448500007857,18.445681999634207],[-66.15420100039644,18.445714000074076],[-66.15391799964091,18.445796999909017],[-66.15369699970796,18.44591200010683],[-66.15346099970643,18.446089999683224],[-66.15327400010867,18.4463060003194],[-66.15310099985629,18.446580999923604],[-66.15288499994624,18.446957000191457],[-66.1527209999147,18.447172999737404],[-66.15249499995889,18.447392999879437],[-66.15231300038403,18.447554000002334],[-66.15202899980358,18.44781900015129],[-66.15169200041801,18.44812199988166],[-66.15155299960252,18.44828300017338],[-66.15146200026423,18.448488999781407],[-66.15139399959385,18.44876800013484],[-66.1513130003013,18.449318999959544],[-66.15125999969955,18.449552999787993],[-66.15118799972952,18.44980400040398],[-66.15092300031397,18.450033999617652],[-66.1506439997564,18.45014799997328],[-66.15030300017287,18.450221999909477],[-66.14912599963985,18.45064700042259],[-66.14905399966982,18.45067600040926],[-66.14891099955467,18.450756999582037],[-66.14885799985122,18.45080099973737],[-66.14852099956734,18.45121500029824],[-66.14815700041758,18.45181599970683],[-66.14757900010927,18.453017999882775],[-66.14742900032145,18.45344100035559],[-66.14726299974177,18.45390799999765],[-66.14723799962744,18.453980000086723],[-66.14718099972602,18.45414099999917],[-66.14713999971812,18.454257000112424],[-66.14697099966372,18.454812000061988],[-66.14684699981517,18.45511000001468],[-66.14667799976075,18.455459000242477],[-66.14646199985069,18.455807999760808],[-66.14627000023009,18.456060000134134],[-66.1458559999533,18.456495000192174],[-66.14556300005033,18.45678899998328],[-66.14519300015448,18.457316000076098],[-66.14499999981062,18.457645999863427],[-66.1446879996411,18.458183000144384],[-66.14452000030992,18.458535999845523],[-66.14438999971526,18.45891200035094],[-66.14422200038409,18.459549999740986],[-66.14403400006312,18.46010000039698],[-66.14386500000872,18.46045700012737],[-66.14360100041807,18.460778000081543],[-66.14331299963966,18.46110800002972],[-66.14285599970518,18.46147899997811],[-66.14249099983219,18.461718000303268],[-66.1420339998977,18.461939000047536],[-66.14169800033704,18.462048000148204],[-66.14120700006735,18.46216799970208],[-66.14085600043808,18.462264000307297],[-66.14050499991049,18.462336999790683],[-66.14024100031986,18.46238699988585],[-66.14001500036402,18.462391000404093],[-66.13998199985376,18.462390000061507],[-66.13981799982221,18.462383000219603],[-66.1395690003002,18.462368999682834],[-66.1395490002087,18.46229499986993],[-66.13942399963693,18.462222000368616],[-66.1393440001693,18.462175999896594],[-66.13918400033573,18.462011000176517],[-66.13908999972608,18.461989999751474],[-66.139090999551,18.462001000136734],[-66.13909200027422,18.462013000013986],[-66.13909300009914,18.462021999708334],[-66.13909499974896,18.462033000091544],[-66.13909599957387,18.46204499996657],[-66.13909800012199,18.462053999659222],[-66.13910099959675,18.4620650000404],[-66.13910200031995,18.462076999913172],[-66.1391049997947,18.462086999948504],[-66.13910700034283,18.462103000344673],[-66.13910899999266,18.4621150002148],[-66.13910999981758,18.462123999903792],[-66.13911599966535,18.46214200013248],[-66.13912099968822,18.462159000015365],[-66.13912400006127,18.462169000045925],[-66.13912700043433,18.462182999746933],[-66.13912900008415,18.4621940001198],[-66.13913199955888,18.462205999983553],[-66.13913499993193,18.46221799984648],[-66.13913699958177,18.462229000217096],[-66.13913999995479,18.46224200042185],[-66.13914400015275,18.462254999773513],[-66.13914900017564,18.462264000307297],[-66.13915500002341,18.462274000331725],[-66.1391619996961,18.462286000189856],[-66.13916699971898,18.462299000390306],[-66.13917299956677,18.462309000412713],[-66.13917799958963,18.46231999992543],[-66.13918400033573,18.462328000112862],[-66.1391900001835,18.462338000133588],[-66.1391960000313,18.462348000153717],[-66.13920199987908,18.462360000006708],[-66.13920500025212,18.462368999682834],[-66.139210000275,18.46237699986799],[-66.13921600012279,18.462388999718943],[-66.13922100014567,18.462400000078606],[-66.13922500034361,18.462410999585497],[-66.13905499956599,18.462525000243307],[-66.13820699981925,18.4627970001166],[-66.13510199998915,18.463798000313833],[-66.1294029997918,18.46563199961719],[-66.12926999972241,18.471737000141186],[-66.12911599973661,18.478717000345025],[-66.12906999970586,18.480826999796008],[-66.12897500016962,18.485028000278888],[-66.12896599994879,18.497999000345008],[-66.12898600004027,18.52440300015054],[-66.1293469997153,18.524512999674744],[-66.138689999693,18.524911999693497],[-66.14905799986778,18.525181000252367],[-66.15716300011141,18.52519999979457],[-66.16215400030408,18.525130999743574],[-66.16601099962148,18.52515599999982],[-66.17046899971169,18.525521000258305],[-66.17546099972931,18.52508200004842],[-66.17744199962814,18.5254310000219],[-66.18281799978529,18.52613800012062],[-66.18713500030854,18.526266999655803],[-66.18727099985266,18.52627100038596],[-66.18727900024858,18.522293000149755],[-66.1873239995561,18.497999000345008],[-66.18790299968933,18.494398000099213],[-66.18934600036113,18.489241999886328],[-66.190738000081,18.48433699994404],[-66.19224600015183,18.478817999738716],[-66.19326700015093,18.47527199965915],[-66.19564899990776,18.47106500035445]]]},"properties":{"GEOID":"72137","NAME":"Toa Baja Municipio","AREALAND":60252060,"AREAWATER":47993012}}]}