{"type":"FeatureCollection","features":[{"type":"Feature","geometry":{"type":"Polygon","coordinates":[[[-66.14288655683556,18.4352633],[-66.14289670520361,18.43555739182984],[-66.14292710685089,18.435850224313313],[-66.1429776315929,18.436140543496773],[-66.1430480630749,18.4364271061889],[-66.1431380996985,18.43670868528426],[-66.14324735591306,18.43698407501793],[-66.14337536386667,18.437252096128795],[-66.14352157540964,18.43751160090931],[-66.14368536444168,18.43776147812017],[-66.14386602959303,18.438000657748788],[-66.14406279722776,18.43822811559128],[-66.14427482475666,18.43844287763824],[-66.14450120424529,18.438644024245622],[-66.14474096630194,18.438830694072763],[-66.14499308422864,18.43900208777081],[-66.14525647841778,18.43915747140563],[-66.14553002097495,18.43929617960065],[-66.14581254054896,18.439417618386077],[-66.14610282734759,18.439521267742396],[-66.14639963831824,18.439606683827144],[-66.14670170247074,18.43967350087554],[-66.14700772632001,18.439721432766717],[-66.14731639942498,18.43975027424896],[-66.1476264,18.439759901818622],[-66.147936400575,18.43975027424896],[-66.14824507367997,18.439721432766717],[-66.14855109752925,18.43967350087554],[-66.14885316168174,18.439606683827144],[-66.1491499726524,18.439521267742396],[-66.14944025945103,18.439417618386077],[-66.14972277902504,18.43929617960065],[-66.14999632158221,18.43915747140563],[-66.15025971577134,18.43900208777081],[-66.15051183369805,18.438830694072763],[-66.1507515957547,18.438644024245622],[-66.15097797524332,18.43844287763824],[-66.15119000277222,18.43822811559128],[-66.15138677040696,18.438000657748788],[-66.1515674355583,18.43776147812017],[-66.15173122459035,18.43751160090931],[-66.15187743613332,18.437252096128795],[-66.15200544408692,18.43698407501793],[-66.15211470030148,18.43670868528426],[-66.15220473692509,18.4364271061889],[-66.15227516840709,18.436140543496773],[-66.1523256931491,18.435850224313313],[-66.15235609479637,18.43555739182984],[-66.15236624316442,18.4352633],[-66.15235609479637,18.43496920817016],[-66.1523256931491,18.434676375686685],[-66.15227516840709,18.434386056503225],[-66.15220473692509,18.434099493811097],[-66.15211470030148,18.43381791471574],[-66.15200544408692,18.43354252498207],[-66.15187743613332,18.433274503871203],[-66.15173122459035,18.433014999090688],[-66.1515674355583,18.43276512187983],[-66.15138677040696,18.43252594225121],[-66.15119000277222,18.43229848440872],[-66.15097797524332,18.432083722361757],[-66.1507515957547,18.431882575754376],[-66.15051183369805,18.431695905927235],[-66.15025971577134,18.43152451222919],[-66.14999632158221,18.43136912859437],[-66.14972277902504,18.43123042039935],[-66.14944025945103,18.43110898161392],[-66.1491499726524,18.4310053322576],[-66.14885316168174,18.430919916172854],[-66.14855109752925,18.43085309912446],[-66.14824507367997,18.43080516723328],[-66.147936400575,18.430776325751037],[-66.1476264,18.430766698181376],[-66.14731639942498,18.430776325751037],[-66.14700772632001,18.43080516723328],[-66.14670170247074,18.43085309912446],[-66.14639963831824,18.430919916172854],[-66.14610282734759,18.4310053322576],[-66.14581254054896,18.43110898161392],[-66.14553002097495,18.43123042039935],[-66.14525647841778,18.43136912859437],[-66.14499308422864,18.43152451222919],[-66.14474096630194,18.431695905927235],[-66.14450120424529,18.431882575754376],[-66.14427482475666,18.432083722361757],[-66.14406279722776,18.43229848440872],[-66.14386602959303,18.43252594225121],[-66.14368536444168,18.43276512187983],[-66.14352157540964,18.433014999090688],[-66.14337536386667,18.433274503871203],[-66.14324735591306,18.43354252498207],[-66.1431380996985,18.43381791471574],[-66.1430480630749,18.434099493811097],[-66.1429776315929,18.434386056503225],[-66.14292710685089,18.434676375686685],[-66.14289670520361,18.43496920817016],[-66.14288655683556,18.4352633]]]},"properties":{"shelterId":"catano-shelter-1","kind":"radius","radiusM":500}},{"type":"Feature","geometry":{"type":"MultiLineString","coordinates":[[[-66.14831252558034,18.439712540158137],[-66.14827930927277,18.439654920293464],[-66.14811301231384,18.439054417900763],[-66.1480861902237,18.438555693979566],[-66.14786624908447,18.43759895424256]],[[-66.14811301231384,18.439054417900763],[-66.14717423915863,18.439090040982606],[-66.14631056785583,18.439074773948434],[-66.1448932255572,18.438937022122744]],[[-66.14443302154541,18.43759895424256],[-66.14443838596344,18.437639666680298],[-66.14440083503723,18.437761803935643],[-66.144357919693,18.437858495867886]],[[-66.14459931850433,18.43783305062783],[-66.14452421665192,18.43788394110419],[-66.14448130130768,18.437889030150984],[-66.14441692829132,18.43788394110419],[-66.14437937736511,18.437873763010117],[-66.144357919693,18.437858495867886],[-66.14404678344727,18.43784831777232],[-66.14383220672607,18.437889030150984],[-66.14380471477632,18.437923135682837]],[[-66.14502847194672,18.43759895424256],[-66.14496409893036,18.43761422140784],[-66.14493191242218,18.437660022895543],[-66.14493727684021,18.437827961579373]],[[-66.15092933177948,18.43759895424256],[-66.1510044336319,18.43816892749321]],[[-66.15127321181777,18.438135608987857],[-66.15023732185364,18.438260530160747],[-66.15015149116516,18.438219817870092],[-66.15012466907501,18.438082413817938],[-66.15006566047668,18.43759895424256]]]},"properties":{"shelterId":"catano-shelter-1","kind":"road","radiusM":500,"roadId":"14/5181/7337/13","roadClass":"minor","source":"OpenFreeMap / OpenStreetMap","exposureHigh":false,"exposureModerate":true}},{"type":"Feature","geometry":{"type":"MultiLineString","coordinates":[[[-66.14550590515137,18.43224009545213],[-66.14539861679077,18.432265541520138],[-66.14423453807831,18.43274901609695],[-66.14416480064392,18.43274901609695],[-66.14403069019318,18.432703213300613],[-66.14397704601288,18.432713391700858],[-66.14369809627533,18.432820264867004]],[[-66.1452966928482,18.43230625522115],[-66.14517867565155,18.432011080670435],[-66.14481389522552,18.432148489576065]],[[-66.14400923252106,18.432514912787454],[-66.14382510215692,18.432577299862373]],[[-66.14397704601288,18.432713391700858],[-66.14391267299652,18.432555626429405]],[[-66.14423990249634,18.433349540520055],[-66.14429354667664,18.433517483415557]],[[-66.14436864852905,18.433492037532844],[-66.14403069019318,18.43360908856212]],[[-66.14458858966827,18.433064546140145],[-66.14442765712738,18.43266758889503]],[[-66.14526450634003,18.43320195420374],[-66.14559173583984,18.433084902897235],[-66.14560782909393,18.433064546140145],[-66.14547908306122,18.432769372891414],[-66.14543616771698,18.4327541052958],[-66.14458858966827,18.433064546140145],[-66.14441692829132,18.4331408839668],[-66.14436864852905,18.433181597460504],[-66.14429354667664,18.433308827066142],[-66.14423990249634,18.433349540520055],[-66.14395022392273,18.43345132411268]],[[-66.14428281784058,18.437023890029337],[-66.14413797855377,18.437125671446154],[-66.14408433437347,18.437191829334765]]]},"properties":{"shelterId":"catano-shelter-1","kind":"road","radiusM":500,"roadId":"14/5181/7338/5","roadClass":"service","source":"OpenFreeMap / OpenStreetMap","exposureHigh":false,"exposureModerate":true}},{"type":"Feature","geometry":{"type":"MultiLineString","coordinates":[[[-66.15152478218079,18.433522572591656],[-66.15146040916443,18.432942405546953]],[[-66.15149475339761,18.432664889911603],[-66.15052163600922,18.43275919449448]],[[-66.14920735359192,18.43182277939917],[-66.14890694618225,18.43193474234208],[-66.14884793758392,18.43204670521206],[-66.1490947008133,18.432616696874234]],[[-66.1495989561081,18.431675191772086],[-66.14991545677185,18.432423307057817]],[[-66.14981889724731,18.43158867482836],[-66.1501407623291,18.432296076796803]]]},"properties":{"shelterId":"catano-shelter-1","kind":"road","radiusM":500,"roadId":"14/5181/7338/6","roadClass":"service","source":"OpenFreeMap / OpenStreetMap","exposureHigh":false,"exposureModerate":true}},{"type":"Feature","geometry":{"type":"MultiLineString","coordinates":[[[-66.15127282882067,18.43813604657315],[-66.15032851696014,18.438250352088986]],[[-66.15215876930336,18.436579111997958],[-66.15090787410736,18.43672872357969],[-66.15082740783691,18.43678470346255],[-66.15084886550903,18.436993355592534],[-66.1510044336319,18.43816892749321]],[[-66.15021586418152,18.438250352088986],[-66.15015149116516,18.438219817870092],[-66.15012466907501,18.438082413817938],[-66.15000665187836,18.437110404237472],[-66.1500334739685,18.437069691674367],[-66.15084886550903,18.436993355592534]],[[-66.15029096603394,18.435568409175005],[-66.15036070346832,18.435853399403612],[-66.15022122859955,18.43592973599175]],[[-66.15051627159119,18.435507339778837],[-66.1506450176239,18.436092587266444],[-66.15087032318115,18.4360824090663],[-66.15146040916443,18.435945003305306],[-66.15227580070496,18.435736349902612],[-66.1523406427021,18.435730017553944]],[[-66.150843501091,18.435425913883506],[-66.15103125572205,18.43577706278157]],[[-66.14948630332947,18.43514092294612],[-66.14940047264099,18.43490682289405],[-66.14938974380493,18.43483048585162]],[[-66.15229971515444,18.43451255852706],[-66.15097761154175,18.4346574550966],[-66.14948630332947,18.43514092294612],[-66.14739954471588,18.435843221189288],[-66.14693820476532,18.43595518151359],[-66.1442506313324,18.436301240236673],[-66.14395558834076,18.436357220258756],[-66.14306085398054,18.436471483408933]],[[-66.15196852715685,18.433460294569024],[-66.15151405334473,18.433522572591656],[-66.1511492729187,18.433537840119],[-66.15063965320587,18.433588731867104]],[[-66.15106144015989,18.4321649268844],[-66.15090250968933,18.43222991702386],[-66.14897668361664,18.432972940703394],[-66.14804640826075,18.4307843869342]],[[-66.15097761154175,18.43255053722467],[-66.15110099315643,18.433466591646365],[-66.1511492729187,18.433537840119]],[[-66.15091860294342,18.432280809159153],[-66.15090250968933,18.43222991702386]],[[-66.15015521178556,18.431460136996275],[-66.14920735359192,18.43182277939917]],[[-66.14675515601355,18.430843314599628],[-66.14571511745453,18.431247695861458],[-66.14559173583984,18.43129349904558],[-66.14522009809635,18.43138925985855]],[[-66.14948973249537,18.43112873446541],[-66.14970624446869,18.431634477921648]],[[-66.14815056324005,18.431878760879712],[-66.14705622196198,18.43230116600904],[-66.14697575569153,18.43225536309339],[-66.14663243293762,18.431476711660068]],[[-66.148322224617,18.432290987584395],[-66.14786088466644,18.432474199135868]],[[-66.14682018756866,18.43189911777722],[-66.14827930927277,18.431334212976793]],[[-66.14652514457703,18.432469109928732],[-66.14646077156067,18.43234187970161],[-66.14617645740509,18.43165483484806]],[[-66.14567756652832,18.43265741049207],[-66.14646077156067,18.43234187970161]],[[-66.14571511745453,18.431247695861458],[-66.145680907792,18.43116293484045]],[[-66.14453494548798,18.434474245872025],[-66.144357919693,18.434026400278753]],[[-66.14566683769226,18.433568375169685],[-66.14582777023315,18.433955152008608],[-66.14580631256104,18.43403148943976],[-66.14562392234802,18.434107826837035],[-66.14462614059448,18.434469156724106],[-66.14453494548798,18.434474245872025],[-66.14447593688965,18.434504780756356],[-66.14433646202087,18.434642187668672],[-66.14424526691437,18.43468290080679],[-66.14443838596344,18.435975537928357]],[[-66.14635348320007,18.433344451338854],[-66.14750146865845,18.43289151360753]],[[-66.14599406719208,18.43343605657762],[-66.14566683769226,18.433568375169685],[-66.14546298980713,18.433629445254724],[-66.14533960819244,18.433680336975698],[-66.144357919693,18.434026400278753],[-66.14408433437347,18.434128183470577],[-66.14392876625061,18.433665069460986],[-66.14360932303093,18.432876615182142]],[[-66.14768385887146,18.433319005430533],[-66.14658415317535,18.43374140702099],[-66.14650905132294,18.433700693659873],[-66.14600479602814,18.432530180404314],[-66.14573657512665,18.431863493205014],[-66.14576876163483,18.43180751171947],[-66.14774286746979,18.431049215255896],[-66.14781260490417,18.43109501849291],[-66.14868700504303,18.433125616404183],[-66.14822030067444,18.43331391624841],[-66.14786088466644,18.432474199135868],[-66.14776968955994,18.43225536309339]],[[-66.147780418396,18.433537840119],[-66.14734590053558,18.432535269609645],[-66.14727079868317,18.432489466756337],[-66.14617109298706,18.43291695957913]],[[-66.14816665649414,18.434667633381125],[-66.14832758903503,18.435110388174806],[-66.14837050437927,18.43514092294612],[-66.1484295129776,18.435156190329735],[-66.14938974380493,18.43483048585162],[-66.15041434764862,18.434469156724106],[-66.15043044090271,18.434387730336965],[-66.15031242370605,18.43404675692193],[-66.15023732185364,18.43399077614737],[-66.14816665649414,18.434667633381125],[-66.1479252576828,18.434743970495887]],[[-66.14698648452759,18.436509892953595],[-66.14702939987183,18.436555694735603],[-66.14714205265045,18.436769436223585],[-66.14719033241272,18.436901752249582],[-66.14718496799469,18.437059513532077],[-66.1471688747406,18.437105315167614],[-66.14713668823242,18.4371307605154],[-66.14690601825714,18.437186740267308]],[[-66.14693820476532,18.43595518151359],[-66.1468255519867,18.435461537717458],[-66.14666998386383,18.4351002099165],[-66.14642858505249,18.434469156724106],[-66.14599406719208,18.43343605657762],[-66.14516373281845,18.43142127043148]],[[-66.14811301231384,18.436153656454692],[-66.14817202091217,18.436316507517233],[-66.14822030067444,18.436494625690216]],[[-66.14849925041199,18.436423378443166],[-66.14844024181366,18.43606714176495]],[[-66.14794671535492,18.43619945833163],[-66.14805936813354,18.436550605649316]],[[-66.14742636680603,18.436357220258756],[-66.14742636680603,18.436387754808578],[-66.14757120609283,18.43695264300169],[-66.14759266376495,18.436983177445725],[-66.14765703678131,18.436993355592534],[-66.14772140979767,18.436983177445725],[-66.14780187606812,18.436983177445725],[-66.14794135093689,18.43695264300169]],[[-66.1480164527893,18.438250352088986],[-66.14780187606812,18.43732414503559]],[[-66.14636421203613,18.436713456335752],[-66.14641785621643,18.437161294927805],[-66.14640176296234,18.43726307626325],[-66.14639639854431,18.437405570031615]],[[-66.14599406719208,18.436708367254127],[-66.14603698253632,18.4374157481534]],[[-66.14459931850433,18.43783305062783],[-66.14452421665192,18.43788394110419],[-66.14448130130768,18.437889030150984],[-66.14441692829132,18.43788394110419],[-66.14437937736511,18.437873763010117],[-66.144357919693,18.437858495867886],[-66.14404678344727,18.43784831777232],[-66.14383220672607,18.437889030150984],[-66.14380471477632,18.437923135682837]],[[-66.14477097988129,18.436698189090464],[-66.14477634429932,18.43693737577763],[-66.14493727684021,18.437069691674367]],[[-66.14544689655304,18.436713456335752],[-66.14545226097107,18.43730887784453],[-66.14537179470062,18.43746663875332],[-66.14530742168427,18.437527707453313],[-66.14496409893036,18.43761422140784],[-66.14493191242218,18.437660022895543],[-66.14493727684021,18.437827961579373]],[[-66.14395558834076,18.436357220258756],[-66.14373564720154,18.43482030757673],[-66.14365518093109,18.434779594471166],[-66.14324748516083,18.43483048585162],[-66.14316701889038,18.434917001163825],[-66.14334404468536,18.436112943664938]],[[-66.1435478925705,18.43684577240485],[-66.14356398582458,18.43688648502102],[-66.1435854434967,18.437044246317527],[-66.1434942483902,18.437074780745277]],[[-66.1436927318573,18.436820327014857],[-66.14375710487366,18.437059513532077]],[[-66.14423453807831,18.436708367254127],[-66.14428281784058,18.437023890029337],[-66.14435255527496,18.43723254186895],[-66.14443838596344,18.437639666680298],[-66.14440083503723,18.437761803935643],[-66.144357919693,18.437858495867886]],[[-66.14353859020619,18.437539330080277],[-66.14384829998016,18.437476816871495]],[[-66.1429814309867,18.436158473473615],[-66.14443838596344,18.435975537928357],[-66.14492654800415,18.43590429046614],[-66.14498019218445,18.435822864758862],[-66.14486753940582,18.435146012074142],[-66.1448085308075,18.434738881355955]],[[-66.14311384429934,18.433887563135887],[-66.1433494091034,18.433797387876766],[-66.14340305328369,18.43373122868161],[-66.14329146706301,18.433444781210195]]]},"properties":{"shelterId":"catano-shelter-1","kind":"road","radiusM":500,"roadId":"14/5181/7338/26","roadClass":"minor","source":"OpenFreeMap / OpenStreetMap","exposureHigh":true,"exposureModerate":true}},{"type":"Feature","geometry":{"type":"MultiLineString","coordinates":[[[-66.1448085308075,18.434738881355955],[-66.14473879337311,18.43470834651322],[-66.14462614059448,18.434469156724106]],[[-66.14494800567627,18.43503405122277],[-66.14606380462646,18.434611652808755],[-66.14628374576569,18.434514959049906]],[[-66.14666998386383,18.4351002099165],[-66.14631056785583,18.435191814219593],[-66.145259141922,18.43533430970517]],[[-66.14606380462646,18.434611652808755],[-66.14651441574097,18.43570072612563],[-66.14625692367554,18.435741439013015]],[[-66.14531815052032,18.435827953866692],[-66.145259141922,18.43533430970517],[-66.1452054977417,18.434983159902586],[-66.14518940448761,18.43493735770153]]]},"properties":{"shelterId":"catano-shelter-1","kind":"road","radiusM":500,"roadId":"14/5181/7338/34","roadClass":"minor","source":"OpenFreeMap / OpenStreetMap","exposureHigh":false,"exposureModerate":true}},{"type":"Feature","geometry":{"type":"MultiLineString","coordinates":[[[-66.15097761154175,18.43255053722467],[-66.15099370479584,18.432479288342847],[-66.15096688270569,18.432326612068024],[-66.15091860294342,18.432280809159153]]]},"properties":{"shelterId":"catano-shelter-1","kind":"road","radiusM":500,"roadId":"14/5181/7338/56","roadClass":"minor","source":"OpenFreeMap / OpenStreetMap","exposureHigh":false,"exposureModerate":true}},{"type":"Feature","geometry":{"type":"MultiLineString","coordinates":[[[-66.15091860294342,18.432280809159153],[-66.15089178085327,18.43234187970161],[-66.15091860294342,18.432499645169244],[-66.15097761154175,18.43255053722467]]]},"properties":{"shelterId":"catano-shelter-1","kind":"road","radiusM":500,"roadId":"14/5181/7338/57","roadClass":"minor","source":"OpenFreeMap / OpenStreetMap","exposureHigh":false,"exposureModerate":true}},{"type":"Feature","geometry":{"type":"MultiLineString","coordinates":[[[-66.15236300922801,18.435097223152855],[-66.15131556987762,18.43531395321446],[-66.15051627159119,18.435507339778837],[-66.14794671535492,18.43619945833163],[-66.14720106124878,18.436423378443166],[-66.14669144153595,18.436637120095696],[-66.14649295806885,18.436703278172374],[-66.14636421203613,18.436713456335752],[-66.14620864391327,18.436703278172374],[-66.14544689655304,18.436713456335752],[-66.14439010620117,18.43668801092616],[-66.14423453807831,18.436708367254127],[-66.14321804824212,18.436915354241012]]]},"properties":{"shelterId":"catano-shelter-1","kind":"road","radiusM":500,"roadId":"14/5181/7338/61","roadClass":"tertiary","source":"OpenFreeMap / OpenStreetMap","exposureHigh":false,"exposureModerate":true}},{"type":"Feature","geometry":{"type":"Polygon","coordinates":[[[-66.13967711009387,18.4297046],[-66.13968725813379,18.42999869182984],[-66.13971765879806,18.430291524313315],[-66.13976818190639,18.430581843496775],[-66.13983861111107,18.430868406188903],[-66.13992864482343,18.43114998528426],[-66.14003789750528,18.43142537501793],[-66.14016590131988,18.431693396128797],[-66.14031210813523,18.431952900909312],[-66.14047589187132,18.43220277812017],[-66.14065655118102,18.43244195774879],[-66.14085331245347,18.43266941559128],[-66.14106533312666,18.432884177638243],[-66.14129170529553,18.433085324245624],[-66.14153145959969,18.433271994072765],[-66.14178356937441,18.43344338777081],[-66.14204695504694,18.43359877140563],[-66.14232048875938,18.43373747960065],[-66.14260299919837,18.43385891838608],[-66.14289327661088,18.433962567742398],[-66.14319007798441,18.434047983827146],[-66.14349213236996,18.43411480087554],[-66.14379814632426,18.43416273276672],[-66.14410680944856,18.434191574248963],[-66.1444168,18.434201201818624],[-66.14472679055145,18.434191574248963],[-66.14503545367575,18.43416273276672],[-66.14534146763005,18.43411480087554],[-66.14564352201559,18.434047983827146],[-66.14594032338913,18.433962567742398],[-66.14623060080163,18.43385891838608],[-66.14651311124062,18.43373747960065],[-66.14678664495307,18.43359877140563],[-66.14705003062559,18.43344338777081],[-66.14730214040031,18.433271994072765],[-66.14754189470447,18.433085324245624],[-66.14776826687334,18.432884177638243],[-66.14798028754653,18.43266941559128],[-66.14817704881898,18.43244195774879],[-66.14835770812869,18.43220277812017],[-66.14852149186477,18.431952900909312],[-66.14866769868013,18.431693396128797],[-66.14879570249472,18.43142537501793],[-66.14890495517658,18.43114998528426],[-66.14899498888893,18.430868406188903],[-66.14906541809361,18.430581843496775],[-66.14911594120194,18.430291524313315],[-66.14914634186621,18.42999869182984],[-66.14915648990613,18.4297046],[-66.14914634186621,18.42941050817016],[-66.14911594120194,18.429117675686687],[-66.14906541809361,18.428827356503227],[-66.14899498888893,18.4285407938111],[-66.14890495517658,18.42825921471574],[-66.14879570249472,18.42798382498207],[-66.14866769868013,18.427715803871205],[-66.14852149186477,18.42745629909069],[-66.14835770812869,18.42720642187983],[-66.14817704881898,18.426967242251212],[-66.14798028754653,18.42673978440872],[-66.14776826687334,18.42652502236176],[-66.14754189470447,18.426323875754377],[-66.14730214040031,18.426137205927237],[-66.14705003062559,18.42596581222919],[-66.14678664495307,18.42581042859437],[-66.14651311124062,18.42567172039935],[-66.14623060080163,18.425550281613923],[-66.14594032338913,18.425446632257604],[-66.14564352201559,18.425361216172856],[-66.14534146763005,18.42529439912446],[-66.14503545367575,18.425246467233283],[-66.14472679055145,18.42521762575104],[-66.1444168,18.425207998181378],[-66.14410680944856,18.42521762575104],[-66.14379814632426,18.425246467233283],[-66.14349213236996,18.42529439912446],[-66.14319007798441,18.425361216172856],[-66.14289327661088,18.425446632257604],[-66.14260299919837,18.425550281613923],[-66.14232048875938,18.42567172039935],[-66.14204695504694,18.42581042859437],[-66.14178356937441,18.42596581222919],[-66.14153145959969,18.426137205927237],[-66.14129170529553,18.426323875754377],[-66.14106533312666,18.42652502236176],[-66.14085331245347,18.42673978440872],[-66.14065655118102,18.426967242251212],[-66.14047589187132,18.42720642187983],[-66.14031210813523,18.42745629909069],[-66.14016590131988,18.427715803871205],[-66.14003789750528,18.42798382498207],[-66.13992864482343,18.42825921471574],[-66.13983861111107,18.4285407938111],[-66.13976818190639,18.428827356503227],[-66.13971765879806,18.429117675686687],[-66.13968725813379,18.42941050817016],[-66.13967711009387,18.4297046]]]},"properties":{"shelterId":"catano-shelter-2","kind":"radius","radiusM":500}},{"type":"Feature","geometry":{"type":"MultiLineString","coordinates":[[[-66.14550590515137,18.43224009545213],[-66.14539861679077,18.432265541520138],[-66.14423453807831,18.43274901609695],[-66.14416480064392,18.43274901609695],[-66.14403069019318,18.432703213300613],[-66.14397704601288,18.432713391700858],[-66.14369809627533,18.432820264867004]],[[-66.1452966928482,18.43230625522115],[-66.14517867565155,18.432011080670435],[-66.14481389522552,18.432148489576065]],[[-66.14400923252106,18.432514912787454],[-66.14363372325897,18.432642142886507]],[[-66.14397704601288,18.432713391700858],[-66.14391267299652,18.432555626429405]],[[-66.14423990249634,18.433349540520055],[-66.14429354667664,18.433517483415557]],[[-66.14436864852905,18.433492037532844],[-66.14403069019318,18.43360908856212]],[[-66.14458858966827,18.433064546140145],[-66.14442765712738,18.43266758889503]],[[-66.14526450634003,18.43320195420374],[-66.14559173583984,18.433084902897235],[-66.14560782909393,18.433064546140145],[-66.14547908306122,18.432769372891414],[-66.14543616771698,18.4327541052958],[-66.14458858966827,18.433064546140145],[-66.14441692829132,18.4331408839668],[-66.14436864852905,18.433181597460504],[-66.14429354667664,18.433308827066142],[-66.14423990249634,18.433349540520055],[-66.14395022392273,18.43345132411268]]]},"properties":{"shelterId":"catano-shelter-2","kind":"road","radiusM":500,"roadId":"14/5181/7338/5","roadClass":"service","source":"OpenFreeMap / OpenStreetMap","exposureHigh":false,"exposureModerate":true}},{"type":"Feature","geometry":{"type":"MultiLineString","coordinates":[[[-66.14766776561737,18.42710500186068],[-66.14759266376495,18.427298397659],[-66.1475819349289,18.427359469971194],[-66.14763557910919,18.427613937705146],[-66.14775359630585,18.427985459920507],[-66.14793062210083,18.42836207066202],[-66.14799499511719,18.42842314259643],[-66.14804327487946,18.4284536785555],[-66.1482310295105,18.428474035858528],[-66.14827930927277,18.428519839781558]],[[-66.1430436372757,18.429507165822713],[-66.1415147781372,18.42956823735041]],[[-66.14857971668243,18.428229748063046],[-66.14804327487946,18.4284536785555]]]},"properties":{"shelterId":"catano-shelter-2","kind":"road","radiusM":500,"roadId":"14/5181/7338/6","roadClass":"service","source":"OpenFreeMap / OpenStreetMap","exposureHigh":false,"exposureModerate":true}},{"type":"Feature","geometry":{"type":"MultiLineString","coordinates":[[[-66.14759266376495,18.427400184833928],[-66.14739418029785,18.42742563161825]],[[-66.14761412143707,18.42724241468713],[-66.14734590053558,18.427293308298673],[-66.14722788333893,18.42735438061267]],[[-66.1429363489151,18.429512255117515],[-66.14290416240692,18.42877939511486],[-66.14307582378387,18.42877939511486],[-66.14310264587402,18.42947663005073]],[[-66.1413323879242,18.43007716590435],[-66.14138603210449,18.42984814824149],[-66.1415147781372,18.42956823735041],[-66.14177227020264,18.429064396598164]],[[-66.1476194858551,18.427532508071252],[-66.14740490913391,18.42755795483599]],[[-66.14766240119934,18.427695367300487],[-66.14751756191254,18.427756439471693]]]},"properties":{"shelterId":"catano-shelter-2","kind":"road","radiusM":500,"roadId":"14/5181/7338/14","roadClass":"service","source":"OpenFreeMap / OpenStreetMap","exposureHigh":false,"exposureModerate":true}},{"type":"Feature","geometry":{"type":"MultiLineString","coordinates":[[[-66.1430436372757,18.429507165822713],[-66.14311873912811,18.429552969470535],[-66.14320993423462,18.429547880176926],[-66.14327430725098,18.429512255117515]]]},"properties":{"shelterId":"catano-shelter-2","kind":"road","radiusM":500,"roadId":"14/5181/7338/20","roadClass":"service","source":"OpenFreeMap / OpenStreetMap","exposureHigh":false,"exposureModerate":true}},{"type":"Feature","geometry":{"type":"MultiLineString","coordinates":[[[-66.14327430725098,18.429512255117515],[-66.14320456981659,18.429471540754875],[-66.14310264587402,18.42947663005073],[-66.1430436372757,18.429507165822713]]]},"properties":{"shelterId":"catano-shelter-2","kind":"road","radiusM":500,"roadId":"14/5181/7338/21","roadClass":"service","source":"OpenFreeMap / OpenStreetMap","exposureHigh":false,"exposureModerate":true}},{"type":"Feature","geometry":{"type":"MultiLineString","coordinates":[[[-66.14853418224442,18.431931917698847],[-66.14791452884674,18.430474129130644],[-66.1478716135025,18.43039779011984],[-66.14780187606812,18.43027055835985],[-66.1468255519867,18.428097425362267],[-66.14678800106049,18.427995638600052],[-66.1467719078064,18.427725903388804]],[[-66.1491540303091,18.429849443861464],[-66.14897131919861,18.429924487496336],[-66.1478716135025,18.43039779011984],[-66.14735126495361,18.43061153926469],[-66.14571511745453,18.431247695861458],[-66.14559173583984,18.43129349904558],[-66.14515721797943,18.43140546233319],[-66.1432957649231,18.432102686619714],[-66.14258229732513,18.432352058123243],[-66.14204049110413,18.43252509119884],[-66.14099277249835,18.432813814731347]],[[-66.14815320556161,18.426938012308714],[-66.14772140979767,18.42709991249461],[-66.14766776561737,18.42710500186068],[-66.14762485027313,18.427094823128428],[-66.14703394197599,18.425955658429622]],[[-66.14450812339783,18.42721187851295],[-66.14418625831604,18.42721187851295]],[[-66.14118218421936,18.42735438061267],[-66.1414235830307,18.426886158984473],[-66.14158987998962,18.426621511413288],[-66.14175081253052,18.426590975128875],[-66.14181518554688,18.426621511413288],[-66.14185273647308,18.426921784587947],[-66.14179909229279,18.427008303879944],[-66.14169716835022,18.427018482617314],[-66.1414235830307,18.426886158984473]],[[-66.13980889320374,18.428769216481726],[-66.13995373249054,18.428504571808574],[-66.14093240920153,18.426656341491757]],[[-66.14166781591493,18.426041569723022],[-66.14234626293182,18.425903907295933],[-66.14290416240692,18.4258682814816]],[[-66.14204049110413,18.43252509119884],[-66.14200294017792,18.432397861013158],[-66.14184200763702,18.431975456121407],[-66.14175081253052,18.431751530215692],[-66.1416220664978,18.431609031760203],[-66.141477227211,18.431532693253317],[-66.14134848117828,18.43158867482836],[-66.1413162946701,18.43169554869371],[-66.14136457443237,18.43178206558366],[-66.14169716835022,18.431944920787814],[-66.14184200763702,18.431975456121407]],[[-66.14258229732513,18.432352058123243],[-66.14205658435822,18.430998322756025]],[[-66.14311337471008,18.432168846441627],[-66.14256083965302,18.43081510963175]],[[-66.14215314388275,18.43123751737444],[-66.14193856716156,18.43131385601238]],[[-66.14219605922699,18.43095251949326],[-66.14205658435822,18.430998322756025],[-66.14180445671082,18.431049215255896]],[[-66.14275932312012,18.430738770772336],[-66.14235162734985,18.430896537711092]],[[-66.14128410816193,18.429140736200992],[-66.13995373249054,18.428504571808574],[-66.13986174468477,18.428461775568653]],[[-66.14121437072754,18.429267968797035],[-66.14128410816193,18.429140736200992],[-66.14152550697327,18.428682698075704],[-66.14194929599762,18.427883673092026],[-66.1420351266861,18.42776661816478]],[[-66.14152550697327,18.428682698075704],[-66.14019513130188,18.428041442650496]],[[-66.1417669057846,18.428229748063046],[-66.14044189453125,18.427583401596962]],[[-66.14222288131714,18.42785822637549],[-66.1422711610794,18.427776796857273],[-66.14237844944,18.427537597424504],[-66.14241600036621,18.427339112536202],[-66.14234626293182,18.425903907295933]],[[-66.14297926425934,18.42812287204339],[-66.14297389984131,18.428479125183912]],[[-66.14358007907867,18.428117782707474],[-66.14343888661278,18.42530474860822]],[[-66.14355325698853,18.427583401596962],[-66.14310264587402,18.42760375900302],[-66.14299535751343,18.4275426867776],[-66.14290416240692,18.4258682814816],[-66.14288512542744,18.425449265136947]],[[-66.14370882511139,18.42846385720732],[-66.14308655261993,18.428484214509155],[-66.14297389984131,18.428479125183912],[-66.14283442497253,18.428458767881494],[-66.1424320936203,18.428316266696967],[-66.14235162734985,18.428341713345716],[-66.14207804203033,18.428860824158292]],[[-66.1433494091034,18.428784484431205],[-66.14348351955414,18.42877430579837],[-66.14347815513611,18.428474035858528]],[[-66.14436864852905,18.429430826382585],[-66.14423453807831,18.429451183569938],[-66.14327430725098,18.429512255117515]],[[-66.14706695079803,18.427990549260358],[-66.14358007907867,18.428117782707474],[-66.14285051822662,18.42812287204339],[-66.14222288131714,18.42785822637549],[-66.14068865776062,18.427115180592324]],[[-66.1485904455185,18.428397695959717],[-66.14813446998596,18.428580911659935]],[[-66.14835977554321,18.428489303834226],[-66.14911963773442,18.430264241843247]],[[-66.1472225189209,18.428977878340675],[-66.14688456058502,18.429064396598164],[-66.14539325237274,18.429115289670477],[-66.14488899707794,18.429115289670477],[-66.14485681056976,18.429054217981914],[-66.1448460817337,18.42865216215729],[-66.14491045475006,18.428601268947915],[-66.14670753479004,18.428535107753177],[-66.14698112010956,18.428448589229376]],[[-66.1459618806839,18.430184040709264],[-66.14597260951996,18.430428325728244],[-66.14598333835602,18.430463950597826],[-66.1460155248642,18.430494486194476],[-66.14604771137238,18.43049957546006],[-66.14610135555267,18.43048939692875],[-66.14612817764282,18.43045377206441],[-66.14614427089691,18.43040796865658],[-66.14613890647888,18.430178951434357]],[[-66.14735126495361,18.43061153926469],[-66.14719033241272,18.43026037981498],[-66.14702939987183,18.430143326505714],[-66.1459618806839,18.430184040709264],[-66.14557564258575,18.430189129984043],[-66.14531815052032,18.430265469087487]],[[-66.14815056324005,18.431878760879712],[-66.14705622196198,18.43230116600904],[-66.14697575569153,18.43225536309339],[-66.14663243293762,18.431476711660068]],[[-66.14828210752331,18.432306919252497],[-66.14786088466644,18.432474199135868]],[[-66.14682018756866,18.43189911777722],[-66.14827930927277,18.431334212976793]],[[-66.14652514457703,18.432469109928732],[-66.14646077156067,18.43234187970161],[-66.14617645740509,18.43165483484806]],[[-66.14567756652832,18.43265741049207],[-66.14646077156067,18.43234187970161]],[[-66.14462077617645,18.431609031760203],[-66.14407360553741,18.430250201269516]],[[-66.14571511745453,18.431247695861458],[-66.14516258239746,18.429878683947493],[-66.14517331123352,18.42975654109094],[-66.14529132843018,18.42965984460129],[-66.14694893360138,18.42958859452149],[-66.14743709564209,18.429461362162712]],[[-66.14424526691437,18.430189129984043],[-66.14407360553741,18.430250201269516],[-66.14392876625061,18.430306183262147]],[[-66.14373028278351,18.43038252231362],[-66.14342987537384,18.430494486194476]],[[-66.143279671669,18.430550468107555],[-66.14297389984131,18.430667521139654]],[[-66.14361763000488,18.43198054534315],[-66.14306509494781,18.430626807050572]],[[-66.14412188529968,18.431797333265592],[-66.14356935024261,18.4304435935304]],[[-66.14351034164429,18.43263705368436],[-66.14303827285767,18.432794818881092],[-66.1423248052597,18.43303401099999]],[[-66.14442701166247,18.43420119138229],[-66.144357919693,18.434026400278753]],[[-66.14566683769226,18.433568375169685],[-66.14582777023315,18.433955152008608],[-66.14581484377767,18.434001138935823]],[[-66.14635348320007,18.433344451338854],[-66.14750146865845,18.43289151360753]],[[-66.14599406719208,18.43343605657762],[-66.14566683769226,18.433568375169685],[-66.14546298980713,18.433629445254724],[-66.14533960819244,18.433680336975698],[-66.144357919693,18.434026400278753],[-66.14408433437347,18.434128183470577],[-66.14392876625061,18.433665069460986],[-66.1432957649231,18.432102686619714]],[[-66.14654719493076,18.43372137163824],[-66.14650905132294,18.433700693659873],[-66.14600479602814,18.432530180404314],[-66.14573657512665,18.431863493205014],[-66.14576876163483,18.43180751171947],[-66.14774286746979,18.431049215255896],[-66.14781260490417,18.43109501849291],[-66.14831517850347,18.4322621327872]],[[-66.1479557251103,18.432695778425288],[-66.14786088466644,18.432474199135868],[-66.14776968955994,18.43225536309339]],[[-66.14757298572677,18.43305922716475],[-66.14734590053558,18.432535269609645],[-66.14727079868317,18.432489466756337],[-66.14617109298706,18.43291695957913]],[[-66.14618012806834,18.433878430841222],[-66.14599406719208,18.43343605657762],[-66.14515721797943,18.43140546233319],[-66.14436864852905,18.429430826382585],[-66.14427208900452,18.42892698522769],[-66.14408740938019,18.42521887000421]],[[-66.14256083965302,18.432957673125856],[-66.14293098449707,18.433863547046457],[-66.1430436372757,18.43391443869811],[-66.1433494091034,18.433797387876766],[-66.14340305328369,18.43373122868161],[-66.14303827285767,18.432794818881092]],[[-66.14119827747345,18.43275919449448],[-66.14104807376862,18.43231134443309],[-66.14089250564575,18.432168846441627]]]},"properties":{"shelterId":"catano-shelter-2","kind":"road","radiusM":500,"roadId":"14/5181/7338/26","roadClass":"minor","source":"OpenFreeMap / OpenStreetMap","exposureHigh":true,"exposureModerate":true}}]}
