{"type":"FeatureCollection","features":[{"type":"Feature","geometry":{"type":"Polygon","coordinates":[[[-66.12317300004011,18.432958000068766],[-66.12305000001646,18.43309400003648],[-66.12306599990998,18.433132999593774],[-66.12301999987922,18.43318700001513],[-66.12289500020576,18.43332999997576],[-66.12255600027206,18.433694000113544],[-66.12226800039195,18.43401199998707],[-66.12220899994242,18.434071000113317],[-66.1221379997973,18.43414299999437],[-66.12183499984859,18.434448999791567],[-66.12144400003635,18.434845000023877],[-66.12140700022641,18.434883000385565],[-66.12133000023353,18.43496100038403],[-66.12110400027773,18.435173999871694],[-66.12102499973668,18.43524899994054],[-66.12097100020833,18.43529799975195],[-66.12047800028883,18.435767999929247],[-66.12021600034801,18.436014000307484],[-66.12004700029362,18.436172000233086],[-66.12002899985195,18.436189000130142],[-66.11986200034569,18.436344000116403],[-66.11968200042064,18.43651599982764],[-66.11949300027474,18.43669099999134],[-66.1194620003126,18.43671900013735],[-66.11885200021723,18.437273999655325],[-66.11883299995065,18.43729100029556],[-66.1187240001707,18.437390999716524],[-66.11839699993257,18.437703999692634],[-66.11800199992236,18.438049999746138],[-66.11788100044684,18.438153000176786],[-66.11785799998232,18.438172999624427],[-66.11784100026388,18.43818800006082],[-66.1173779995833,18.438586000310693],[-66.11719400035858,18.438745000056496],[-66.11717199971896,18.43876500028747],[-66.11714199958173,18.43879199961554],[-66.11711599964246,18.438813999948668],[-66.11705500044141,18.438866999809953],[-66.11638900026955,18.43944499993741],[-66.11620599997144,18.43957600006464],[-66.1161330001765,18.43962800006795],[-66.1160970001915,18.43965399963761],[-66.11601600000066,18.439711999908926],[-66.11598900023647,18.439731000404976],[-66.1159280001371,18.439774000353648],[-66.11589299997699,18.43979799980506],[-66.11583199987763,18.439840999736973],[-66.11579800044076,18.43986700012658],[-66.11577800034927,18.43988000031992],[-66.11566199999831,18.439963000416707],[-66.11564699992971,18.439973000035515],[-66.1156030004471,18.439997000311287],[-66.11556699956377,18.440026000391512],[-66.11515700038325,18.440275000350017],[-66.11469100022792,18.440506000009428],[-66.11431899978395,18.4405950000646],[-66.11409500037627,18.44063000030351],[-66.11398900007106,18.44062299957455],[-66.11372299993228,18.4405950000646],[-66.1132950003101,18.440488000069227],[-66.11303199964605,18.44046399986203],[-66.1127179998267,18.440434999855718],[-66.11239999980938,18.440409000404223],[-66.11240300018243,18.440390999601696],[-66.11240599965716,18.44038199962582],[-66.11240900003021,18.440371000412178],[-66.11241099968004,18.440360000345645],[-66.11240999985512,18.44034099991916],[-66.11240900003021,18.440329000231788],[-66.11240900003021,18.4403169996914],[-66.11240900003021,18.440305999621422],[-66.1124080002053,18.44029699964111],[-66.1124080002053,18.440287000041156],[-66.11240999985512,18.440273000259364],[-66.11241200040327,18.440262999805853],[-66.112414999878,18.44024900002214],[-66.11241700042613,18.440240000038834],[-66.11241999990087,18.440229999583362],[-66.1124230002739,18.440220999599077],[-66.11242699957356,18.440210000375117],[-66.11242999994661,18.440197000206748],[-66.11243400014456,18.440184999657152],[-66.11243699961932,18.440172000339064],[-66.11243900016744,18.44016199987965],[-66.11243900016744,18.440152000271862],[-66.1124359997944,18.440141999811317],[-66.11243400014456,18.4401329998224],[-66.11242599974865,18.440116000315484],[-66.11234799993085,18.440092999676573],[-66.11207699976919,18.440015999923638],[-66.11184699961542,18.43994800013523],[-66.10828099965286,18.438902000400795],[-66.10828300020101,18.438964000285562],[-66.1083450001253,18.442476000339482],[-66.10836600004168,18.44363100033554],[-66.10836799969151,18.443784999975563],[-66.10837600008743,18.444123999980594],[-66.10838799978298,18.444765999853885],[-66.10844800005746,18.445353999894646],[-66.10869400010475,18.445827000301502],[-66.10919100022221,18.44651100015911],[-66.10970300040829,18.44720200031064],[-66.11035000031357,18.447847000188144],[-66.11114600018178,18.44854499963212],[-66.11224300034885,18.449434999921646],[-66.11322900018786,18.450180999994835],[-66.11408699998034,18.450798999769308],[-66.11483299961985,18.45140999958682],[-66.11552999975383,18.4520070001092],[-66.11590899987053,18.45242100031895],[-66.11651300011812,18.4530850000654],[-66.1172379998412,18.45377000038161],[-66.11790599966288,18.45444800035588],[-66.11836500014552,18.45493400033391],[-66.11843200009265,18.45500400007362],[-66.11891699961625,18.455559999695044],[-66.11933900028895,18.456101999876342],[-66.12007599970762,18.457049000202165],[-66.1209129995837,18.45789699972623],[-66.12181200028236,18.458973999829393],[-66.12267599992263,18.459768000351268],[-66.12371100016544,18.46069100011344],[-66.12381099972455,18.460802000006197],[-66.12399200037284,18.4610020003841],[-66.12404400025137,18.461053000366437],[-66.12455399988932,18.461551000300037],[-66.12460999996583,18.46154600026684],[-66.1294029997918,18.46563199961719],[-66.13510199998915,18.463798000313833],[-66.13820699981925,18.4627970001166],[-66.13905499956599,18.462525000243307],[-66.13922500034361,18.462410999585497],[-66.13922100014567,18.462400000078606],[-66.13921600012279,18.462388999718943],[-66.139210000275,18.46237699986799],[-66.13920500025212,18.462368999682834],[-66.13920199987908,18.462360000006708],[-66.1391960000313,18.462348000153717],[-66.1391900001835,18.462338000133588],[-66.13918400033573,18.462328000112862],[-66.13917799958963,18.46231999992543],[-66.13917299956677,18.462309000412713],[-66.13916699971898,18.462299000390306],[-66.1391619996961,18.462286000189856],[-66.13915500002341,18.462274000331725],[-66.13914900017564,18.462264000307297],[-66.13914400015275,18.462254999773513],[-66.13913999995479,18.46224200042185],[-66.13913699958177,18.462229000217096],[-66.13913499993193,18.46221799984648],[-66.13913199955888,18.462205999983553],[-66.13912900008415,18.4621940001198],[-66.13912700043433,18.462182999746933],[-66.13912400006127,18.462169000045925],[-66.13912099968822,18.462159000015365],[-66.13911599966535,18.46214200013248],[-66.13910999981758,18.462123999903792],[-66.13910899999266,18.4621150002148],[-66.13910700034283,18.462103000344673],[-66.1391049997947,18.462086999948504],[-66.13910200031995,18.462076999913172],[-66.13910099959675,18.4620650000404],[-66.13909800012199,18.462053999659222],[-66.13909599957387,18.46204499996657],[-66.13909499974896,18.462033000091544],[-66.13909300009914,18.462021999708334],[-66.13909200027422,18.462013000013986],[-66.139090999551,18.462001000136734],[-66.13908999972608,18.461989999751474],[-66.13918400033573,18.462011000176517],[-66.1393440001693,18.462175999896594],[-66.13942399963693,18.462222000368616],[-66.1395490002087,18.46229499986993],[-66.1395690003002,18.462368999682834],[-66.13981799982221,18.462383000219603],[-66.13998199985376,18.462390000061507],[-66.14001500036402,18.462391000404093],[-66.14024100031986,18.46238699988585],[-66.14050499991049,18.462336999790683],[-66.14085600043808,18.462264000307297],[-66.14120700006735,18.46216799970208],[-66.14169800033704,18.462048000148204],[-66.1420339998977,18.461939000047536],[-66.14249099983219,18.461718000303268],[-66.14285599970518,18.46147899997811],[-66.14331299963966,18.46110800002972],[-66.14360100041807,18.460778000081543],[-66.14386500000872,18.46045700012737],[-66.14403400006312,18.46010000039698],[-66.14422200038409,18.459549999740986],[-66.14438999971526,18.45891200035094],[-66.14452000030992,18.458535999845523],[-66.1446879996411,18.458183000144384],[-66.14499999981062,18.457645999863427],[-66.14519300015448,18.457316000076098],[-66.14556300005033,18.45678899998328],[-66.1458559999533,18.456495000192174],[-66.14627000023009,18.456060000134134],[-66.14646199985069,18.455807999760808],[-66.14667799976075,18.455459000242477],[-66.14684699981517,18.45511000001468],[-66.14697099966372,18.454812000061988],[-66.14713999971812,18.454257000112424],[-66.14718099972602,18.45414099999917],[-66.14723799962744,18.453980000086723],[-66.14726299974177,18.45390799999765],[-66.14742900032145,18.45344100035559],[-66.14757900010927,18.453017999882775],[-66.14815700041758,18.45181599970683],[-66.14852099956734,18.45121500029824],[-66.14885799985122,18.45080099973737],[-66.14891099955467,18.450756999582037],[-66.14905399966982,18.45067600040926],[-66.14912599963985,18.45064700042259],[-66.15030300017287,18.450221999909477],[-66.1506439997564,18.45014799997328],[-66.15092300031397,18.450033999617652],[-66.15118799972952,18.44980400040398],[-66.15125999969955,18.449552999787993],[-66.1513130003013,18.449318999959544],[-66.15139399959385,18.44876800013484],[-66.15146200026423,18.448488999781407],[-66.15155299960252,18.44828300017338],[-66.15169200041801,18.44812199988166],[-66.15202899980358,18.44781900015129],[-66.15231300038403,18.447554000002334],[-66.15249499995889,18.447392999879437],[-66.1527209999147,18.447172999737404],[-66.15288499994624,18.446957000191457],[-66.15310099985629,18.446580999923604],[-66.15327400010867,18.4463060003194],[-66.15346099970643,18.446089999683224],[-66.15369699970796,18.44591200010683],[-66.15391799964091,18.445796999909017],[-66.15420100039644,18.445714000074076],[-66.15448500007857,18.445681999634207],[-66.1546919997678,18.445681999634207],[-66.15490600002805,18.445759000256487],[-66.15496100027963,18.445778000083795],[-66.15501999983086,18.445809999653644],[-66.15515299990024,18.445897999931233],[-66.15539300009976,18.44611800000195],[-66.15540099959736,18.446124999654838],[-66.15564099979689,18.44640999964514],[-66.15580099963044,18.446607999727778],[-66.15596999968486,18.44672799984756],[-66.15602599976135,18.446756999643775],[-66.15609100005867,18.446790999898177],[-66.15637899993877,18.44696700025535],[-66.15658900000105,18.44704899990505],[-66.15675100038276,18.447081000090247],[-66.15679599969029,18.447133000378532],[-66.15705400033146,18.447135999968584],[-66.15715600043869,18.447135999968584],[-66.15716700030936,18.447174000168626],[-66.1572479996019,18.447168000137623],[-66.15741800037952,18.44710300021413],[-66.15752200013661,18.44706299998678],[-66.1577050004347,18.446929999590008],[-66.15787299976589,18.446637000396432],[-66.15811299996538,18.446251000175295],[-66.1582960002635,18.446035999907824],[-66.15834800014203,18.445998999894105],[-66.15849799992986,18.445893999880866],[-66.15874300015224,18.44573400034598],[-66.15892499972712,18.445674999963252],[-66.15896200043537,18.44567200034768],[-66.15903100003233,18.445666000264175],[-66.15909299995661,18.445662000208408],[-66.15910999967505,18.445660999768343],[-66.15916099972868,18.44565699971245],[-66.15917599979728,18.445656000124547],[-66.15924199991953,18.445650000040505],[-66.15928399975232,18.445647000424476],[-66.15933399998103,18.445643000368264],[-66.1593530002476,18.445645000396404],[-66.15947200007331,18.44565699971245],[-66.15948999961664,18.445658999740424],[-66.15953999984535,18.445664000236278],[-66.1596620000441,18.445676000403218],[-66.15967399973965,18.445676999991022],[-66.15983399957324,18.445745000068463],[-66.15987899977908,18.445778999671003],[-66.1599800000614,18.445856000249837],[-66.16006000042735,18.445916999743172],[-66.16006700010006,18.445924000256415],[-66.16017300040527,18.44608900009785],[-66.16025899972065,18.44630000025808],[-66.16026899976642,18.446552000097682],[-66.16026399974353,18.446796000361118],[-66.16018699975065,18.447020999738047],[-66.16006700010006,18.447273000224246],[-66.15997699968835,18.447386999856043],[-66.15992099961187,18.447435999614758],[-66.15989600039583,18.44746500014358],[-66.15976400015134,18.447616999750036],[-66.1596279997089,18.44789300023882],[-66.15957300035564,18.447997999882237],[-66.15954900006619,18.44804399989246],[-66.15953700037063,18.448065999893004],[-66.15951599955592,18.448107000312564],[-66.1594939998146,18.44814799987016],[-66.15948700014191,18.448161999862354],[-66.15942799969237,18.44823799980006],[-66.15939300043058,18.448281999748605],[-66.15927799990453,18.44860300031043],[-66.15920599993451,18.44891899987134],[-66.1591549998809,18.44938700029942],[-66.15912499974367,18.449460999711373],[-66.15909100030679,18.449826999742694],[-66.15909100030679,18.450161000240726],[-66.15914900003311,18.450134999704815],[-66.15930100036907,18.450066000098868],[-66.15968399978541,18.449892999902808],[-66.1598040003343,18.449843999992943],[-66.16007799997071,18.449728999871308],[-66.16040299966072,18.44957999997709],[-66.1604579999123,18.44955400020535],[-66.16060699987523,18.449470000063766],[-66.16078000012757,18.44937100042238],[-66.1610629999848,18.449129000395953],[-66.16110999984046,18.449076999859837],[-66.16147700026157,18.44873000028746],[-66.16177500018742,18.448408000391094],[-66.16191800030255,18.448213999823373],[-66.16208300015899,18.447989999879205],[-66.16230200044211,18.447608000152698],[-66.16252000000199,18.447229000017195],[-66.16288499987498,18.446490999977662],[-66.16314500016597,18.445982000115453],[-66.1634139997795,18.445316999734047],[-66.16353900035126,18.444941000137266],[-66.16362600038991,18.44462500007537],[-66.16372699977394,18.444138999897476],[-66.16377000032995,18.44375399962749],[-66.1637610001091,18.44330900025474],[-66.16375600008625,18.442693999616935],[-66.16375600008625,18.44229099976624],[-66.16374699986541,18.441972999872345],[-66.1638230000334,18.441587999861703],[-66.16416899963981,18.440345000098826],[-66.16464499984087,18.438790000359845],[-66.16489500008613,18.438025000418317],[-66.16496000038346,18.43785999965029],[-66.16498999962236,18.437752999656354],[-66.16501499973673,18.43766500032026],[-66.16508000003407,18.437556999717675],[-66.1651679998976,18.437347000387536],[-66.16528000005059,18.43707500025692],[-66.165449000105,18.436804999826837],[-66.16569299960415,18.436446999865076],[-66.16581300015307,18.436327000234716],[-66.16597100033681,18.436167999956297],[-66.16606400022324,18.4360760003819],[-66.16647699977679,18.435657999694698],[-66.16684699967264,18.435355999788957],[-66.16720700042107,18.435098999770116],[-66.16751500039264,18.434962000034147],[-66.16762099979955,18.434940999710385],[-66.16777399996043,18.43491199962432],[-66.16804799959681,18.434888000342827],[-66.16833200017724,18.434925999842804],[-66.16853899986648,18.4350300000909],[-66.1685460004375,18.435037000195507],[-66.16870000042327,18.435221000407257],[-66.1688219997237,18.43538799959526],[-66.16897999990745,18.435512000173365],[-66.16931200016847,18.43557200028351],[-66.16945899958324,18.43554100015819],[-66.16965799977488,18.435498000002603],[-66.16974200033879,18.435413999806375],[-66.16983299967706,18.43538400015244],[-66.16990399982217,18.435215999607454],[-66.1699549998758,18.435095000320555],[-66.17001099995228,18.43496100038403],[-66.17001400032534,18.434935000104392],[-66.17009999964075,18.43450400030449],[-66.17015300024252,18.43427899987678],[-66.17015499989233,18.434177999842795],[-66.17015800026537,18.43404900002527],[-66.1701459996715,18.433994000218963],[-66.17010899986158,18.433816000043457],[-66.17009499961787,18.433751000182394],[-66.17006600020387,18.43372400006243],[-66.16995200040107,18.433617999708297],[-66.16991600041605,18.433582999745827],[-66.16975499985925,18.43352099962443],[-66.1697080000036,18.433512000140993],[-66.1696729998435,18.433505999632896],[-66.16937300026785,18.433477999815743],[-66.16916999987824,18.43345499999291],[-66.16880500000525,18.433459999991708],[-66.16853600039174,18.433464999990342],[-66.1683149995605,18.433432000167013],[-66.16812299993987,18.433385999653805],[-66.16783199968674,18.433196000367776],[-66.16777499978532,18.433003000182783],[-66.16775499969384,18.432751000074308],[-66.16777899998328,18.432553999881044],[-66.16796700030427,18.432301999966622],[-66.16828899962123,18.43221000002754],[-66.16856900000371,18.43218999988608],[-66.16870500044615,18.43214699974445],[-66.16923500017556,18.43210200025858],[-66.16966299979774,18.432051000202073],[-66.16967600021654,18.43204499964297],[-66.1698290003774,18.431961000316086],[-66.16986000033954,18.43194400000089],[-66.16986700001225,18.431903999653724],[-66.16990299999725,18.43168600032518],[-66.16990800002014,18.431656000020602],[-66.16988600027882,18.43154900042583],[-66.1698700003853,18.431472000254118],[-66.16965100010218,18.431268000041932],[-66.16947100017713,18.431124000398132],[-66.16936300022208,18.431036999897945],[-66.16912700022054,18.43094599980765],[-66.16886799975445,18.430832000347703],[-66.16864699982152,18.430694000092917],[-66.16832499960623,18.430552000172124],[-66.16825900038232,18.43053100016189],[-66.16802699968041,18.430460000148834],[-66.16772000043206,18.430418999779857],[-66.16728600006378,18.43038900010647],[-66.16706199975779,18.430379999606885],[-66.16658999975469,18.430362999987604],[-66.16620700033836,18.430323000124847],[-66.166110000254,18.430312999944608],[-66.16579800008444,18.43023500039398],[-66.16572500028951,18.430201999950633],[-66.1655960004181,18.430133999688554],[-66.16557899980134,18.430117000044962],[-66.16553000029585,18.430119999932078],[-66.16552400044807,18.43006999981841],[-66.16542999983842,18.429962000409617],[-66.16500200021625,18.429316000193776],[-66.16483900000964,18.429085999668214],[-66.16479100032905,18.42903500042155],[-66.16460600038113,18.42883800023158],[-66.16459100031251,18.42882200014568],[-66.16439499959561,18.42864300004191],[-66.164202999975,18.42853300036183],[-66.16396199995059,18.428455000003698],[-66.16364999978103,18.428389999820254],[-66.16307800021882,18.428335999596726],[-66.16258299975118,18.428249000242584],[-66.16250400010846,18.428222999800102],[-66.16220899965737,18.428125000391503],[-66.16203600030333,18.4280240001512],[-66.16188899999024,18.427861000245805],[-66.16182200004309,18.42753599966476],[-66.16187899994448,18.42726499989854],[-66.1619280003483,18.427021000029832],[-66.16191300027967,18.42664999980709],[-66.16189099964005,18.426451000042377],[-66.16188800016532,18.426433000334953],[-66.16170099966925,18.426223000200196],[-66.16169300017164,18.426214000334813],[-66.16163600027024,18.42617899971742],[-66.16156799959987,18.42613700033077],[-66.16146899986566,18.426075999782874],[-66.16132300027579,18.426049000162156],[-66.16110900001554,18.426006999891477],[-66.16076800043201,18.425940999932426],[-66.160472000156,18.425883000128284],[-66.16006600027514,18.425514000269683],[-66.1599790002365,18.425422000107744],[-66.15995300029722,18.425393000120607],[-66.15979900031145,18.425163000313866],[-66.15968799998336,18.424910999794566],[-66.15955900011194,18.424540000133607],[-66.15946299985247,18.424227999767094],[-66.15933800017899,18.423929999948452],[-66.15917400014747,18.423513000130527],[-66.15909499960642,18.423374000250686],[-66.15900699974289,18.423218999651276],[-66.15868899972557,18.42284799974979],[-66.15844199985335,18.42252399964531],[-66.1584159999141,18.42248899998152],[-66.15832499967749,18.42226000027684],[-66.15829100024064,18.42189299976823],[-66.15836300021066,18.421699999681262],[-66.15842099993696,18.42157999998607],[-66.15784799965154,18.421668999611775],[-66.15753899985503,18.421695999920015],[-66.1574159998314,18.421708999782844],[-66.15712200010353,18.421749999671572],[-66.15687000020844,18.421786000064706],[-66.15547799959026,18.421984000387702],[-66.15468000007223,18.422097000022195],[-66.15456600026941,18.422115999908204],[-66.15439300001705,18.422149000198655],[-66.1532349997506,18.422328000243294],[-66.15289199961893,18.42237299973008],[-66.152566000104,18.422417000334253],[-66.1521429996064,18.422471999582203],[-66.15185899992426,18.42251699988357],[-66.15145700024135,18.42256500019203],[-66.15111300028478,18.422589000341244],[-66.15075300043465,18.422612999634808],[-66.15035099985343,18.422630000020195],[-66.14982199994893,18.42262700000246],[-66.14928600037173,18.422657000177637],[-66.14920000015799,18.422657000177637],[-66.14880400032287,18.42273700005101],[-66.14867299990331,18.422752000129666],[-66.14844299974953,18.42277799969471],[-66.14809799996804,18.422817999607922],[-66.14770600033088,18.42289899997893],[-66.14733999973467,18.4229759997281],[-66.14708600018976,18.42298199975138],[-66.14698499990743,18.422983000323438],[-66.14644599995718,18.422986000334976],[-66.14592799992332,18.422984999762956],[-66.14585699977822,18.422986000334976],[-66.14558499979164,18.422990000066196],[-66.14491699996996,18.422992000357898],[-66.14397499961358,18.423005000122767],[-66.14271799961291,18.423038000242666],[-66.14215400044662,18.423205000184105],[-66.14158600018406,18.42348099981867],[-66.14132400024323,18.423531000143548],[-66.14100299985286,18.423519999851734],[-66.14057299968255,18.42339500028264],[-66.14050999993334,18.423377000255392],[-66.14042500044286,18.423347999923443],[-66.14022000040346,18.423260000032354],[-66.14000199994523,18.42318100012084],[-66.1397940004311,18.42312099994804],[-66.13954300036092,18.423048999713057],[-66.13949499978204,18.423050000284697],[-66.13855300032397,18.423068000346163],[-66.1354869999536,18.423103999611193],[-66.13553100033454,18.422844999735812],[-66.13555600044891,18.42269300038094],[-66.13567100007663,18.4220090003434],[-66.13533499961765,18.422223999982915],[-66.13462999998603,18.42267999974022],[-66.13442599977154,18.422811999578933],[-66.13158000040752,18.424655999775897],[-66.13158200005735,18.424643999845923],[-66.1315090002624,18.42469099985097],[-66.13142100039886,18.424778000152855],[-66.13129400017725,18.42490300042138],[-66.13118000037443,18.425017000402967],[-66.13114600003925,18.425050000136807],[-66.1311140002522,18.42508200015678],[-66.13108599976479,18.425109999636707],[-66.12953800040933,18.42659399963962],[-66.12590399977638,18.430133999688554],[-66.12488500032543,18.431119000331357],[-66.12460699959277,18.43137600033482],[-66.12333200004876,18.432781999850544],[-66.12317300004011,18.432958000068766]]]},"properties":{"GEOID":"72033","NAME":"Cataño Municipio","AREALAND":12513251,"AREAWATER":5621422}}]}