{"type":"FeatureCollection","features":[{"type":"Feature","geometry":{"type":"Point","coordinates":[-66.1476264,18.4352633]},"properties":{"id":"catano-shelter-1","name":"Esc. Mercedes García de Colorado","kind":"shelter","sources":[{"label":"PRDOH / AVP · 2026 designated shelters","url":"https://docs.pr.gov/files/Vivienda/vivienda.pr.gov/Home/DVAVP_Refugios_Temporada_de_Huracanes_2026.pdf"},{"label":"Location linked by PRDOH (not field verified)","url":"https://maps.app.goo.gl/CW2CFNevhW6zEqJm7"}],"vintage":"2026 designation / linked map coordinates accessed 2026-09-07","note":"Coordinates from the place linked in the PRDOH 2026 list; not field verified. Name, location, current operation and capacity require confirmation.","designationYear":2026,"operatingStatus":"unconfirmed","capacity":null,"reviewedAt":"2026-09-07","exposureHigh":false,"exposureModerate":true,"zoneLabels":"X"}},{"type":"Feature","geometry":{"type":"Point","coordinates":[-66.1444168,18.4297046]},"properties":{"id":"catano-shelter-2","name":"Esc. Isaac del Rosario","kind":"shelter","sources":[{"label":"PRDOH / AVP · 2026 designated shelters","url":"https://docs.pr.gov/files/Vivienda/vivienda.pr.gov/Home/DVAVP_Refugios_Temporada_de_Huracanes_2026.pdf"},{"label":"Location linked by PRDOH (not field verified)","url":"https://maps.app.goo.gl/iwqkcgJSVi5akwNv7"}],"vintage":"2026 designation / linked map coordinates accessed 2026-09-07","note":"Coordinates from the place linked in the PRDOH 2026 list; not field verified. Name, location, current operation and capacity require confirmation.","designationYear":2026,"operatingStatus":"unconfirmed","capacity":null,"reviewedAt":"2026-09-07","exposureHigh":false,"exposureModerate":true,"zoneLabels":"X"}},{"type":"Feature","geometry":{"type":"Point","coordinates":[-66.153956,18.436202]},"properties":{"id":"catano-health-5150833707","name":"Centro De Diagnostico Y Tratamiento Eulalia Kuilan - Cataño -","kind":"health","sources":[{"label":"OpenStreetMap · community mapping (ODbL)","url":"https://www.openstreetmap.org/node/5150833707"}],"vintage":"OSM version 3, edited 2025-11-07 / retrieved 2026-09-07","note":"OSM mapped point; not field verified. Community mapping does not establish current name, use, operation or capacity. OSM attributes cite PR Department of Health records from 2009/2015; continued operation and location require confirmation.","designationYear":null,"operatingStatus":"unconfirmed","capacity":null,"reviewedAt":"2026-09-07","coordinateMethod":"OSM mapped point","exposureHigh":false,"exposureModerate":true,"zoneLabels":"X"}},{"type":"Feature","geometry":{"type":"Point","coordinates":[-66.1262691,18.4414143]},"properties":{"id":"catano-police-533099600","name":"Cuartel Policía Municipal de Cataño Sgto. Carlos Reyes Rivera","kind":"police","sources":[{"label":"OpenStreetMap · community mapping (ODbL)","url":"https://www.openstreetmap.org/way/533099600"}],"vintage":"OSM version 4, edited 2021-06-07 / retrieved 2026-09-07","note":"OSM bounding-box center of mapped building; not field verified. Community mapping does not establish current name, use, operation or capacity. Municipal confirmation required.","designationYear":null,"operatingStatus":"unconfirmed","capacity":null,"reviewedAt":"2026-09-07","coordinateMethod":"OSM bounding-box center of mapped building","exposureHigh":true,"exposureModerate":false,"zoneLabels":"AE"}},{"type":"Feature","geometry":{"type":"Point","coordinates":[-66.1267694,18.4408239]},"properties":{"id":"catano-fire-535083126","name":"Estación de Bomberos de Cataño Comandante Abelsaín Coreano Cruz","kind":"fire","sources":[{"label":"OpenStreetMap · community mapping (ODbL)","url":"https://www.openstreetmap.org/way/535083126"}],"vintage":"OSM version 4, edited 2025-03-02 / retrieved 2026-09-07","note":"OSM bounding-box center of mapped building; not field verified. Community mapping does not establish current name, use, operation or capacity. Address discrepancy: the 2019 mitigation plan lists Calle Olivo; OSM lists Calle Hernández. Confirmation required.","designationYear":null,"operatingStatus":"unconfirmed","capacity":null,"reviewedAt":"2026-09-07","coordinateMethod":"OSM bounding-box center of mapped building","exposureHigh":true,"exposureModerate":false,"zoneLabels":"AE"}},{"type":"Feature","geometry":{"type":"Point","coordinates":[-66.1273899,18.4419324]},"properties":{"id":"catano-health-952097685","name":"CDT Cataño","kind":"health","sources":[{"label":"OpenStreetMap · community mapping (ODbL)","url":"https://www.openstreetmap.org/way/952097685"}],"vintage":"OSM version 2, edited 2026-07-27 / retrieved 2026-09-07","note":"OSM bounding-box center of mapped building; not field verified. Community mapping does not establish current name, use, operation or capacity. Municipal confirmation required.","designationYear":null,"operatingStatus":"unconfirmed","capacity":null,"reviewedAt":"2026-09-07","coordinateMethod":"OSM bounding-box center of mapped building","exposureHigh":true,"exposureModerate":false,"zoneLabels":"AE"}}]}