{"type": "FeatureCollection", "crs": {"type": "name", "properties": {"name": "EPSG:4326"}}, "features": [{"type": "Feature", "id": 1, "geometry": {"type": "Point", "coordinates": [-66.2260233151386, 18.4461089058905]}, "properties": {"OBJECTID": 1, "Municipio": "Toa Baja", "Barrio": "Sabana Seca", "Comunidad": "Ingenio", "Calle": "Cll Azucena", "PuntoDeReferencia": "Estacionamiento de cancha bajo techo", "Coordenadas": "66.2260250\u00b0W 18.4461060\u00b0N ", "Funciona": "S\u00ed"}}, {"type": "Feature", "id": 2, "geometry": {"type": "Point", "coordinates": [-66.2300303161218, 18.4440089050641]}, "properties": {"OBJECTID": 2, "Municipio": "Toa Baja", "Barrio": "Sabana Seca", "Comunidad": "Ingenio", "Calle": "PR-867", "PuntoDeReferencia": "Frente a la Escuela Jos\u00e9 Robles", "Coordenadas": "66.2300320\u00b0W 18.4440060\u00b0N ", "Funciona": "S\u00ed"}}, {"type": "Feature", "id": 3, "geometry": {"type": "Point", "coordinates": [-66.1856651029605, 18.4604544108272]}, "properties": {"OBJECTID": 3, "Municipio": "Toa Baja", "Barrio": "Sabana Seca", "Comunidad": "3ra Secci\u00f3n Levittown", "Calle": "Cll Marginal Oeste", "PuntoDeReferencia": "Frente a TCJ Metals Mfg. Inc.", "Coordenadas": "66.1856668\u00b0W 18.4604515\u00b0N ", "Funciona": "S\u00ed"}}, {"type": "Feature", "id": 4, "geometry": {"type": "Point", "coordinates": [-66.1788541711411, 18.4542010989309]}, "properties": {"OBJECTID": 4, "Municipio": "Toa Baja", "Barrio": "Sabana Seca", "Comunidad": "3ra Secci\u00f3n Levittown", "Calle": "Cll Marginal Central", "PuntoDeReferencia": "Frente a Academia Esp\u00edritu Santo", "Coordenadas": "66.1788559\u00b0W 18.4541981\u00b0N ", "Funciona": "S\u00ed"}}, {"type": "Feature", "id": 5, "geometry": {"type": "Point", "coordinates": [-66.1441380728763, 18.461271440215]}, "properties": {"OBJECTID": 5, "Municipio": "Toa Baja", "Barrio": "Palo Seco", "Comunidad": "Palo Seco", "Calle": "Cll Del Carmen", "PuntoDeReferencia": "Frente a la cancha bajo techo", "Coordenadas": "66.1441398\u00b0W 18.4612681\u00b0N ", "Funciona": "S\u00ed"}}, {"type": "Feature", "id": 6, "geometry": {"type": "Point", "coordinates": [-66.1364587804069, 18.4684236123914]}, "properties": {"OBJECTID": 6, "Municipio": "Toa Baja", "Barrio": "Palo Seco", "Comunidad": "Isla de Cabras", "Calle": "PR-870", "PuntoDeReferencia": "Frente a oficinas de administraci\u00f3n", "Coordenadas": "66.1364605\u00b0W 18.4684206\u00b0N ", "Funciona": "S\u00ed"}}, {"type": "Feature", "id": 7, "geometry": {"type": "Point", "coordinates": [-66.2104581893653, 18.3991345261435]}, "properties": {"OBJECTID": 7, "Municipio": "Toa Baja", "Barrio": "Candelaria", "Comunidad": "P\u00e1jaros", "Calle": "PR-863", "PuntoDeReferencia": "Parque de Pelota", "Coordenadas": "66.2104599\u00b0W 18.3991316\u00b0N ", "Funciona": "S\u00ed"}}, {"type": "Feature", "id": 8, "geometry": {"type": "Point", "coordinates": [-66.2386547981626, 18.4206966408469]}, "properties": {"OBJECTID": 8, "Municipio": "Toa Baja", "Barrio": "Media Luna", "Comunidad": "Campanilla", "Calle": "PR-865", "PuntoDeReferencia": "Parque de Pelota", "Coordenadas": "66.2386565\u00b0W 18.4206937\u00b0N ", "Funciona": "S\u00ed"}}, {"type": "Feature", "id": 9, "geometry": {"type": "Point", "coordinates": [-66.1711520164952, 18.4506698451957]}, "properties": {"OBJECTID": 9, "Municipio": "Toa Baja", "Barrio": "Sabana Seca", "Comunidad": "2da Secci\u00f3n Levittown", "Calle": "PR-165", "PuntoDeReferencia": "Intersecci\u00f3n de Ferreteria National", "Coordenadas": "66.1711537\u00b0W 18.4506669\u00b0N ", "Funciona": "S\u00ed"}}, {"type": "Feature", "id": 10, "geometry": {"type": "Point", "coordinates": [-66.1854583017771, 18.4296439015623]}, "properties": {"OBJECTID": 10, "Municipio": "Toa Baja", "Barrio": "Sabana Seca", "Comunidad": "Sabana Seca", "Calle": "Cll Acueducto", "PuntoDeReferencia": "Parque de Pelota", "Coordenadas": "66.1854600\u00b0W 18.4296409\u00b0N ", "Funciona": "S\u00ed"}}, {"type": "Feature", "id": 11, "geometry": {"type": "Point", "coordinates": [-66.2541250240513, 18.442866703973]}, "properties": {"OBJECTID": 11, "Municipio": "Toa Baja", "Barrio": "Barrio Pueblo Toa Baja", "Comunidad": "Barrio Pueblo Toa Baja", "Calle": "Cll Rafael Arrieta", "PuntoDeReferencia": "Techo de la Alcald\u00eda", "Coordenadas": "66.2541267\u00b0W 18.4428638\u00b0N ", "Funciona": "S\u00ed"}}, {"type": "Feature", "id": 12, "geometry": {"type": "Point", "coordinates": [-66.1775039994035, 18.4401114050476]}, "properties": {"OBJECTID": 12, "Municipio": "Toa Baja", "Barrio": "Sabana Seca", "Comunidad": "6ta Secci\u00f3n Levittown", "Calle": "Ave Los Dominicos", "PuntoDeReferencia": "Entre el estacionamiento y la Ave Los Dominicos", "Coordenadas": "66.1775057\u00b0W 18.4401083\u00b0N ", "Funciona": "S\u00ed"}}, {"type": "Feature", "id": 13, "geometry": {"type": "Point", "coordinates": [-66.1927330202132, 18.4613832690892]}, "properties": {"OBJECTID": 13, "Municipio": "Toa Baja", "Barrio": "Sabana Seca", "Comunidad": "Punta Salinas", "Calle": "Cll Camino del Lago", "PuntoDeReferencia": "Frente a cancha sin techo", "Coordenadas": "66.1927346\u00b0W 18.4613803\u00b0N ", "Funciona": "S\u00ed"}}, {"type": "Feature", "id": 14, "geometry": {"type": "Point", "coordinates": [-66.2451512429495, 18.3973343890394]}, "properties": {"OBJECTID": 14, "Municipio": "Toa Baja", "Barrio": "Media Luna", "Comunidad": "San Jos\u00e9 Parcelas Viejas", "Calle": "Cll 14", "PuntoDeReferencia": "Esquina Cll 14 y Cll 3", "Coordenadas": "66.2451530\u00b0W 18.3973317\u00b0N ", "Funciona": "S\u00ed"}}]}