{"type": "FeatureCollection", "crs": {"type": "name", "properties": {"name": "EPSG:4326"}}, "features": [{"type": "Feature", "id": 1, "geometry": {"type": "Point", "coordinates": [-66.208736, 18.398941]}, "properties": {"OBJECTID": 1, "Refugio": "Escuela Mart\u00edn Garc\u00eda Guisti", "Latitud": 18.398941, "Longitud": -66.208736, "Region": "Sur"}}, {"type": "Feature", "id": 2, "geometry": {"type": "Point", "coordinates": [-66.254082, 18.4023060000001]}, "properties": {"OBJECTID": 2, "Refugio": "Escuela Jos\u00e9 Nev\u00e1rez L\u00f3pez", "Latitud": 18.402306, "Longitud": -66.254082, "Region": "Sur"}}, {"type": "Feature", "id": 3, "geometry": {"type": "Point", "coordinates": [-66.210548, 18.416682]}, "properties": {"OBJECTID": 3, "Refugio": "Escuela Ernestina Bracero P\u00e9rez", "Latitud": 18.416682, "Longitud": -66.210548, "Region": "Oeste"}}, {"type": "Feature", "id": 4, "geometry": {"type": "Point", "coordinates": [-66.176066636, 18.439594614]}, "properties": {"OBJECTID": 4, "Refugio": "Cuatro (4) Canchas- Complejo Deportivo de Levittown", "Latitud": 18.4395946136335, "Longitud": -66.1760666364921, "Region": "Norte"}}, {"type": "Feature", "id": 5, "geometry": {"type": "Point", "coordinates": [-66.185784, 18.4269380000001]}, "properties": {"OBJECTID": 5, "Refugio": "Escuela Francisca D\u00e1vila Semprit", "Latitud": 18.426938, "Longitud": -66.185784, "Region": "Este"}}, {"type": "Feature", "id": 6, "geometry": {"type": "Point", "coordinates": [-66.1693989999999, 18.441498]}, "properties": {"OBJECTID": 6, "Refugio": "Escuela Efra\u00edn S\u00e1nchez Hidalgo", "Latitud": 18.441498, "Longitud": -66.169399, "Region": "Norte"}}, {"type": "Feature", "id": 7, "geometry": {"type": "Point", "coordinates": [-66.200168, 18.400159]}, "properties": {"OBJECTID": 7, "Refugio": "Escuela Mar\u00eda J. Corredor", "Latitud": 18.400159, "Longitud": -66.200168, "Region": "Sur"}}, {"type": "Feature", "id": 8, "geometry": {"type": "Point", "coordinates": [-66.233975744, 18.423306709]}, "properties": {"OBJECTID": 8, "Refugio": "Escuela Altinencia Valle Santana", "Latitud": 18.4233067093266, "Longitud": -66.2339757438387, "Region": "Oeste"}}, {"type": "Feature", "id": 9, "geometry": {"type": "Point", "coordinates": [-66.229181792, 18.444209444]}, "properties": {"OBJECTID": 9, "Refugio": "Escuela Jos\u00e9 Robles Otero", "Latitud": 18.444209444305, "Longitud": -66.2291817921291, "Region": "Oeste"}}, {"type": "Feature", "id": 10, "geometry": {"type": "Point", "coordinates": [-66.181491616, 18.4350929090001]}, "properties": {"OBJECTID": 10, "Refugio": "Escuela Delia D\u00e1vila de Cab\u00e1n", "Latitud": 18.4350929093196, "Longitud": -66.18149161616, "Region": "Norte"}}, {"type": "Feature", "id": 11, "geometry": {"type": "Point", "coordinates": [-66.1738510179999, 18.4383958180001]}, "properties": {"OBJECTID": 11, "Refugio": "Escuela Basilio Mil\u00e1n Hern\u00e1ndez", "Latitud": 18.4383958181108, "Longitud": -66.1738510184679, "Region": "Norte"}}, {"type": "Feature", "id": 12, "geometry": {"type": "Point", "coordinates": [-66.22890978, 18.44480062]}, "properties": {"OBJECTID": 12, "Refugio": "Centro Comunal Rafael \"Pipo\" Negr\u00f3n", "Latitud": 18.44480062, "Longitud": -66.22890978, "Region": "Oeste"}}, {"type": "Feature", "id": 13, "geometry": {"type": "Point", "coordinates": [-66.21049125, 18.39916537]}, "properties": {"OBJECTID": 13, "Refugio": "Centro Comunal P\u00e1jaros", "Latitud": 18.39916537, "Longitud": -66.21049125, "Region": "Sur"}}, {"type": "Feature", "id": 14, "geometry": {"type": "Point", "coordinates": [-66.1852488179999, 18.429839235]}, "properties": {"OBJECTID": 14, "Refugio": "Centro Comunal de Sabana Seca Jesusa Mat\u00edas Monta\u00f1ez", "Latitud": 18.4298392345402, "Longitud": -66.1852488179241, "Region": "Este"}}]}